<?xml version="1.0" encoding="UTF-8"?>
<gpx version="1.1" creator="GPS Visualizer Sandbox https://www.gpsvisualizer.com/draw/" xmlns="http://www.topografix.com/GPX/1/1" xmlns:xsi="http://www.w3.org/2001/XMLSchema-instance" xsi:schemaLocation="http://www.topografix.com/GPX/1/1 http://www.topografix.com/GPX/1/1/gpx.xsd">
	<trk>
		<name>Cornfield crawl 5k</name>
		<desc>Length: 4.94 km (3.07 mi)</desc>
		<trkseg>
			<trkpt lat="38.205834" lon="-81.512759"><ele>186.1</ele></trkpt>
			<trkpt lat="38.2057778" lon="-81.5127068"></trkpt>
			<trkpt lat="38.205834" lon="-81.512759"><ele>186.1</ele></trkpt>
			<trkpt lat="38.205922" lon="-81.512837"><ele>186.1</ele></trkpt>
			<trkpt lat="38.206101" lon="-81.512988"><ele>186.1</ele></trkpt>
			<trkpt lat="38.206144" lon="-81.513024"><ele>186.1</ele></trkpt>
			<trkpt lat="38.206188" lon="-81.513059"><ele>186.2</ele></trkpt>
			<trkpt lat="38.206224" lon="-81.513087"><ele>186.2</ele></trkpt>
			<trkpt lat="38.206273" lon="-81.513125"><ele>186.2</ele></trkpt>
			<trkpt lat="38.206312" lon="-81.513154"><ele>186.2</ele></trkpt>
			<trkpt lat="38.206425" lon="-81.513257"><ele>186</ele></trkpt>
			<trkpt lat="38.20657" lon="-81.513381"><ele>185.9</ele></trkpt>
			<trkpt lat="38.206607" lon="-81.513414"><ele>185.9</ele></trkpt>
			<trkpt lat="38.206675" lon="-81.513481"><ele>185.8</ele></trkpt>
			<trkpt lat="38.206803" lon="-81.513672"><ele>186.1</ele></trkpt>
			<trkpt lat="38.206799" lon="-81.51375"><ele>186.6</ele></trkpt>
			<trkpt lat="38.206782" lon="-81.513774"><ele>186.4</ele></trkpt>
			<trkpt lat="38.206753" lon="-81.513801"><ele>186.5</ele></trkpt>
			<trkpt lat="38.206666" lon="-81.513811"><ele>186.1</ele></trkpt>
			<trkpt lat="38.206511" lon="-81.513752"><ele>185.7</ele></trkpt>
			<trkpt lat="38.20647" lon="-81.513729"><ele>185.7</ele></trkpt>
			<trkpt lat="38.20637" lon="-81.513668"><ele>185.8</ele></trkpt>
			<trkpt lat="38.206235" lon="-81.513575"><ele>185.9</ele></trkpt>
			<trkpt lat="38.206149" lon="-81.513513"><ele>185.9</ele></trkpt>
			<trkpt lat="38.205987" lon="-81.513402"><ele>185.9</ele></trkpt>
			<trkpt lat="38.205862" lon="-81.513307"><ele>185.9</ele></trkpt>
			<trkpt lat="38.205802" lon="-81.513258"><ele>186</ele></trkpt>
			<trkpt lat="38.205773" lon="-81.513233"><ele>186</ele></trkpt>
			<trkpt lat="38.205624" lon="-81.513113"><ele>186</ele></trkpt>
			<trkpt lat="38.205451" lon="-81.512988"><ele>186.1</ele></trkpt>
			<trkpt lat="38.205279" lon="-81.512861"><ele>186</ele></trkpt>
			<trkpt lat="38.2052018" lon="-81.5128469"></trkpt>
			<trkpt lat="38.205176" lon="-81.5128644"></trkpt>
			<trkpt lat="38.2051534" lon="-81.5129106"></trkpt>
			<trkpt lat="38.2050585" lon="-81.5130937"></trkpt>
			<trkpt lat="38.2050206" lon="-81.5131789"></trkpt>
			<trkpt lat="38.2049937" lon="-81.5132466"></trkpt>
			<trkpt lat="38.2049668" lon="-81.5132687"></trkpt>
			<trkpt lat="38.204874" lon="-81.513263"><ele>184.4</ele></trkpt>
			<trkpt lat="38.204843" lon="-81.513253"><ele>184.3</ele></trkpt>
			<trkpt lat="38.204716" lon="-81.513141"><ele>184.6</ele></trkpt>
			<trkpt lat="38.204565" lon="-81.512989"><ele>184.6</ele></trkpt>
			<trkpt lat="38.204502" lon="-81.512928"><ele>184.8</ele></trkpt>
			<trkpt lat="38.204337" lon="-81.512775"><ele>184.9</ele></trkpt>
			<trkpt lat="38.204283" lon="-81.512726"><ele>184.9</ele></trkpt>
			<trkpt lat="38.204195" lon="-81.512633"><ele>185.2</ele></trkpt>
			<trkpt lat="38.204126" lon="-81.512556"><ele>185.5</ele></trkpt>
			<trkpt lat="38.204081" lon="-81.512521"><ele>185.6</ele></trkpt>
			<trkpt lat="38.203996" lon="-81.512431"><ele>185.9</ele></trkpt>
			<trkpt lat="38.203933" lon="-81.512356"><ele>186.1</ele></trkpt>
			<trkpt lat="38.203823" lon="-81.512226"><ele>185.7</ele></trkpt>
			<trkpt lat="38.203687" lon="-81.51207"><ele>186</ele></trkpt>
			<trkpt lat="38.203573" lon="-81.511936"><ele>186.5</ele></trkpt>
			<trkpt lat="38.203425" lon="-81.511773"><ele>186.9</ele></trkpt>
			<trkpt lat="38.203381" lon="-81.51172"><ele>187</ele></trkpt>
			<trkpt lat="38.203231" lon="-81.511537"><ele>187.2</ele></trkpt>
			<trkpt lat="38.203153" lon="-81.511462"><ele>187.2</ele></trkpt>
			<trkpt lat="38.203001" lon="-81.511278"><ele>187.4</ele></trkpt>
			<trkpt lat="38.202981" lon="-81.51125"><ele>187.4</ele></trkpt>
			<trkpt lat="38.202837" lon="-81.511095"><ele>185.8</ele></trkpt>
			<trkpt lat="38.202788" lon="-81.511044"><ele>185.9</ele></trkpt>
			<trkpt lat="38.202647" lon="-81.510879"><ele>185.8</ele></trkpt>
			<trkpt lat="38.202602" lon="-81.510821"><ele>186.2</ele></trkpt>
			<trkpt lat="38.202475" lon="-81.510657"><ele>187.3</ele></trkpt>
			<trkpt lat="38.202418" lon="-81.51058"><ele>187.2</ele></trkpt>
			<trkpt lat="38.202276" lon="-81.510395"><ele>187.5</ele></trkpt>
			<trkpt lat="38.202135" lon="-81.510229"><ele>186.8</ele></trkpt>
			<trkpt lat="38.202119" lon="-81.510206"><ele>186.8</ele></trkpt>
			<trkpt lat="38.201969" lon="-81.510016"><ele>186.1</ele></trkpt>
			<trkpt lat="38.201854" lon="-81.509812"><ele>186.9</ele></trkpt>
			<trkpt lat="38.201854" lon="-81.509779"><ele>187.2</ele></trkpt>
			<trkpt lat="38.201865" lon="-81.50975"><ele>187.6</ele></trkpt>
			<trkpt lat="38.201912" lon="-81.509658"><ele>188.2</ele></trkpt>
			<trkpt lat="38.20189" lon="-81.509532"><ele>188.6</ele></trkpt>
			<trkpt lat="38.20178" lon="-81.509303"><ele>188.6</ele></trkpt>
			<trkpt lat="38.201726" lon="-81.509214"><ele>188.5</ele></trkpt>
			<trkpt lat="38.201616" lon="-81.508995"><ele>189</ele></trkpt>
			<trkpt lat="38.201564" lon="-81.508911"><ele>189.1</ele></trkpt>
			<trkpt lat="38.20146" lon="-81.508712"><ele>189.2</ele></trkpt>
			<trkpt lat="38.201447" lon="-81.508683"><ele>189.3</ele></trkpt>
			<trkpt lat="38.201354" lon="-81.508478"><ele>189.3</ele></trkpt>
			<trkpt lat="38.201258" lon="-81.508268"><ele>189.5</ele></trkpt>
			<trkpt lat="38.201184" lon="-81.508043"><ele>189.5</ele></trkpt>
			<trkpt lat="38.2011545" lon="-81.507917"></trkpt>
			<trkpt lat="38.2011039" lon="-81.5078151"></trkpt>
			<trkpt lat="38.2010074" lon="-81.5075985"></trkpt>
			<trkpt lat="38.2009695" lon="-81.5074933"></trkpt>
			<trkpt lat="38.2009221" lon="-81.5073873"></trkpt>
			<trkpt lat="38.2008989" lon="-81.5073457"></trkpt>
			<trkpt lat="38.200803" lon="-81.507142"><ele>189.6</ele></trkpt>
			<trkpt lat="38.200702" lon="-81.50695"><ele>189.4</ele></trkpt>
			<trkpt lat="38.200682" lon="-81.506911"><ele>189.3</ele></trkpt>
			<trkpt lat="38.200576" lon="-81.506713"><ele>189</ele></trkpt>
			<trkpt lat="38.200532" lon="-81.506647"><ele>189</ele></trkpt>
			<trkpt lat="38.20041" lon="-81.506429"><ele>188.2</ele></trkpt>
			<trkpt lat="38.200394" lon="-81.506398"><ele>188.3</ele></trkpt>
			<trkpt lat="38.200308" lon="-81.506179"><ele>187.8</ele></trkpt>
			<trkpt lat="38.200322" lon="-81.506118"><ele>188.3</ele></trkpt>
			<trkpt lat="38.200363" lon="-81.506089"><ele>188.8</ele></trkpt>
			<trkpt lat="38.200512" lon="-81.506026"><ele>189.7</ele></trkpt>
			<trkpt lat="38.200688" lon="-81.50591"><ele>190</ele></trkpt>
			<trkpt lat="38.200741" lon="-81.50588"><ele>190.1</ele></trkpt>
			<trkpt lat="38.200898" lon="-81.505792"><ele>189.7</ele></trkpt>
			<trkpt lat="38.200931" lon="-81.505804"><ele>189.6</ele></trkpt>
			<trkpt lat="38.201003" lon="-81.505936"><ele>189.5</ele></trkpt>
			<trkpt lat="38.201068" lon="-81.50617"><ele>189.2</ele></trkpt>
			<trkpt lat="38.201079" lon="-81.506199"><ele>189.3</ele></trkpt>
			<trkpt lat="38.201168" lon="-81.506407"><ele>188.8</ele></trkpt>
			<trkpt lat="38.2012" lon="-81.506476"><ele>188.8</ele></trkpt>
			<trkpt lat="38.201294" lon="-81.506674"><ele>188.5</ele></trkpt>
			<trkpt lat="38.20136" lon="-81.50681"><ele>188.3</ele></trkpt>
			<trkpt lat="38.201453" lon="-81.50701"><ele>188</ele></trkpt>
			<trkpt lat="38.201563" lon="-81.507206"><ele>188</ele></trkpt>
			<trkpt lat="38.201618" lon="-81.507297"><ele>188.1</ele></trkpt>
			<trkpt lat="38.201738" lon="-81.507505"><ele>188</ele></trkpt>
			<trkpt lat="38.2018" lon="-81.507591"><ele>188</ele></trkpt>
			<trkpt lat="38.201933" lon="-81.507787"><ele>187.9</ele></trkpt>
			<trkpt lat="38.201949" lon="-81.507814"><ele>188</ele></trkpt>
			<trkpt lat="38.20207" lon="-81.508003"><ele>187.9</ele></trkpt>
			<trkpt lat="38.202208" lon="-81.508209"><ele>188.1</ele></trkpt>
			<trkpt lat="38.20233" lon="-81.50839"><ele>187.9</ele></trkpt>
			<trkpt lat="38.20237" lon="-81.508446"><ele>187.9</ele></trkpt>
			<trkpt lat="38.202489" lon="-81.508626"><ele>188</ele></trkpt>
			<trkpt lat="38.202533" lon="-81.50869"><ele>187.8</ele></trkpt>
			<trkpt lat="38.202678" lon="-81.508867"><ele>187.9</ele></trkpt>
			<trkpt lat="38.202776" lon="-81.50888"><ele>188.1</ele></trkpt>
			<trkpt lat="38.202929" lon="-81.508755"><ele>188.6</ele></trkpt>
			<trkpt lat="38.202951" lon="-81.508734"><ele>188.6</ele></trkpt>
			<trkpt lat="38.20309" lon="-81.508584"><ele>188.6</ele></trkpt>
			<trkpt lat="38.203129" lon="-81.508515"><ele>188.6</ele></trkpt>
			<trkpt lat="38.203257" lon="-81.508324"><ele>188.5</ele></trkpt>
			<trkpt lat="38.203442" lon="-81.508194"><ele>188</ele></trkpt>
			<trkpt lat="38.203626" lon="-81.508075"><ele>187.9</ele></trkpt>
			<trkpt lat="38.203776" lon="-81.507904"><ele>188</ele></trkpt>
			<trkpt lat="38.203947" lon="-81.507749"><ele>188.4</ele></trkpt>
			<trkpt lat="38.204039" lon="-81.507652"><ele>188.5</ele></trkpt>
			<trkpt lat="38.204173" lon="-81.50749"><ele>188.8</ele></trkpt>
			<trkpt lat="38.204208" lon="-81.507447"><ele>188.9</ele></trkpt>
			<trkpt lat="38.204378" lon="-81.507296"><ele>189.1</ele></trkpt>
			<trkpt lat="38.204454" lon="-81.50727"><ele>188.9</ele></trkpt>
			<trkpt lat="38.204487" lon="-81.507283"><ele>188.9</ele></trkpt>
			<trkpt lat="38.204559" lon="-81.507349"><ele>189</ele></trkpt>
			<trkpt lat="38.204691" lon="-81.507526"><ele>189</ele></trkpt>
			<trkpt lat="38.204733" lon="-81.507582"><ele>189</ele></trkpt>
			<trkpt lat="38.204875" lon="-81.507762"><ele>188.9</ele></trkpt>
			<trkpt lat="38.20493" lon="-81.507844"><ele>188.9</ele></trkpt>
			<trkpt lat="38.20506" lon="-81.508016"><ele>188.9</ele></trkpt>
			<trkpt lat="38.205145" lon="-81.508124"><ele>188.9</ele></trkpt>
			<trkpt lat="38.205272" lon="-81.508289"><ele>188.9</ele></trkpt>
			<trkpt lat="38.205309" lon="-81.508327"><ele>189</ele></trkpt>
			<trkpt lat="38.205447" lon="-81.508527"><ele>189</ele></trkpt>
			<trkpt lat="38.205469" lon="-81.508559"><ele>189</ele></trkpt>
			<trkpt lat="38.205618" lon="-81.508729"><ele>189.1</ele></trkpt>
			<trkpt lat="38.20564" lon="-81.508753"><ele>189.1</ele></trkpt>
			<trkpt lat="38.205796" lon="-81.508882"><ele>189.2</ele></trkpt>
			<trkpt lat="38.205819" lon="-81.508897"><ele>189.2</ele></trkpt>
			<trkpt lat="38.205989" lon="-81.509025"><ele>189.2</ele></trkpt>
			<trkpt lat="38.206096" lon="-81.509144"><ele>189.1</ele></trkpt>
			<trkpt lat="38.20623" lon="-81.5093"><ele>189</ele></trkpt>
			<trkpt lat="38.206292" lon="-81.509367"><ele>189</ele></trkpt>
			<trkpt lat="38.206446" lon="-81.509525"><ele>188.9</ele></trkpt>
			<trkpt lat="38.206468" lon="-81.509551"><ele>188.9</ele></trkpt>
			<trkpt lat="38.206606" lon="-81.509705"><ele>188.8</ele></trkpt>
			<trkpt lat="38.206733" lon="-81.509851"><ele>188.7</ele></trkpt>
			<trkpt lat="38.206815" lon="-81.510045"><ele>188.7</ele></trkpt>
			<trkpt lat="38.206745" lon="-81.510173"><ele>188.7</ele></trkpt>
			<trkpt lat="38.206609" lon="-81.51033"><ele>189</ele></trkpt>
			<trkpt lat="38.206509" lon="-81.510478"><ele>189</ele></trkpt>
			<trkpt lat="38.206408" lon="-81.510689"><ele>188.7</ele></trkpt>
			<trkpt lat="38.206384" lon="-81.510723"><ele>188.6</ele></trkpt>
			<trkpt lat="38.206275" lon="-81.510906"><ele>188.3</ele></trkpt>
			<trkpt lat="38.206254" lon="-81.510931"><ele>188.3</ele></trkpt>
			<trkpt lat="38.206122" lon="-81.511091"><ele>187.9</ele></trkpt>
			<trkpt lat="38.206083" lon="-81.511151"><ele>187.9</ele></trkpt>
			<trkpt lat="38.205982" lon="-81.511382"><ele>187.7</ele></trkpt>
			<trkpt lat="38.205948" lon="-81.511439"><ele>187.7</ele></trkpt>
			<trkpt lat="38.205839" lon="-81.511646"><ele>187.8</ele></trkpt>
			<trkpt lat="38.205822" lon="-81.511674"><ele>187.8</ele></trkpt>
			<trkpt lat="38.205705" lon="-81.511877"><ele>187.7</ele></trkpt>
			<trkpt lat="38.205644" lon="-81.512002"><ele>187.3</ele></trkpt>
			<trkpt lat="38.205533" lon="-81.512228"><ele>186.6</ele></trkpt>
			<trkpt lat="38.205481" lon="-81.512311"><ele>186.4</ele></trkpt>
			<trkpt lat="38.205354" lon="-81.512521"><ele>186.1</ele></trkpt>
			<trkpt lat="38.205312" lon="-81.512577"><ele>185.9</ele></trkpt>
			<trkpt lat="38.205222" lon="-81.512759"><ele>186.4</ele></trkpt>
			<trkpt lat="38.205223" lon="-81.512791"><ele>186.4</ele></trkpt>
			<trkpt lat="38.2052387" lon="-81.5128107"></trkpt>
			<trkpt lat="38.205262" lon="-81.512813"><ele>186.4</ele></trkpt>
			<trkpt lat="38.2053072" lon="-81.5127611"></trkpt>
			<trkpt lat="38.205339" lon="-81.512698"><ele>186.1</ele></trkpt>
			<trkpt lat="38.205444" lon="-81.512553"><ele>186</ele></trkpt>
			<trkpt lat="38.2054964" lon="-81.5125117"></trkpt>
			<trkpt lat="38.2055638" lon="-81.5125693"></trkpt>
			<trkpt lat="38.2056186" lon="-81.5126471"></trkpt>
			<trkpt lat="38.205696" lon="-81.512684"><ele>186.3</ele></trkpt>
			<trkpt lat="38.205843" lon="-81.51283"><ele>186.4</ele></trkpt>
			<trkpt lat="38.205915" lon="-81.512898"><ele>186.4</ele></trkpt>
			<trkpt lat="38.206076" lon="-81.513035"><ele>186.4</ele></trkpt>
			<trkpt lat="38.206147" lon="-81.5131"><ele>186.6</ele></trkpt>
			<trkpt lat="38.206333" lon="-81.513226"><ele>186.5</ele></trkpt>
			<trkpt lat="38.206361" lon="-81.513242"><ele>186.5</ele></trkpt>
			<trkpt lat="38.206505" lon="-81.51335"><ele>186.3</ele></trkpt>
			<trkpt lat="38.206682" lon="-81.513491"><ele>186.2</ele></trkpt>
			<trkpt lat="38.206703" lon="-81.513516"><ele>186.2</ele></trkpt>
			<trkpt lat="38.206802" lon="-81.513726"><ele>186.8</ele></trkpt>
			<trkpt lat="38.206792" lon="-81.513757"><ele>187</ele></trkpt>
			<trkpt lat="38.206746" lon="-81.513784"><ele>186.5</ele></trkpt>
			<trkpt lat="38.2066" lon="-81.51377"><ele>186</ele></trkpt>
			<trkpt lat="38.206432" lon="-81.513672"><ele>186.1</ele></trkpt>
			<trkpt lat="38.206374" lon="-81.513637"><ele>186.1</ele></trkpt>
			<trkpt lat="38.206215" lon="-81.51352"><ele>186.2</ele></trkpt>
			<trkpt lat="38.206157" lon="-81.513482"><ele>186.2</ele></trkpt>
			<trkpt lat="38.205981" lon="-81.513352"><ele>186.3</ele></trkpt>
			<trkpt lat="38.20594" lon="-81.513312"><ele>186.3</ele></trkpt>
			<trkpt lat="38.205768" lon="-81.513183"><ele>186.4</ele></trkpt>
			<trkpt lat="38.205639" lon="-81.513095"><ele>186.4</ele></trkpt>
			<trkpt lat="38.205472" lon="-81.512978"><ele>186.5</ele></trkpt>
			<trkpt lat="38.205362" lon="-81.5129"><ele>186.4</ele></trkpt>
			<trkpt lat="38.2052693" lon="-81.5128557"></trkpt>
			<trkpt lat="38.2051903" lon="-81.5128516"></trkpt>
			<trkpt lat="38.2051708" lon="-81.5128785"></trkpt>
			<trkpt lat="38.205075" lon="-81.513023"><ele>186.8</ele></trkpt>
			<trkpt lat="38.2049963" lon="-81.5132453"></trkpt>
			<trkpt lat="38.2049663" lon="-81.5132721"></trkpt>
			<trkpt lat="38.2049389" lon="-81.5132754"></trkpt>
			<trkpt lat="38.20486" lon="-81.513253"><ele>184.7</ele></trkpt>
			<trkpt lat="38.204739" lon="-81.513131"><ele>185.1</ele></trkpt>
			<trkpt lat="38.204593" lon="-81.512979"><ele>185.1</ele></trkpt>
			<trkpt lat="38.204527" lon="-81.51291"><ele>185.2</ele></trkpt>
			<trkpt lat="38.204357" lon="-81.51277"><ele>185.2</ele></trkpt>
			<trkpt lat="38.204293" lon="-81.512701"><ele>185.5</ele></trkpt>
			<trkpt lat="38.204138" lon="-81.512547"><ele>185.9</ele></trkpt>
			<trkpt lat="38.204121" lon="-81.512525"><ele>186.1</ele></trkpt>
			<trkpt lat="38.203973" lon="-81.512373"><ele>186.7</ele></trkpt>
			<trkpt lat="38.203929" lon="-81.512337"><ele>186.5</ele></trkpt>
			<trkpt lat="38.203796" lon="-81.512176"><ele>186.3</ele></trkpt>
			<trkpt lat="38.203642" lon="-81.51201"><ele>186.6</ele></trkpt>
			<trkpt lat="38.203603" lon="-81.511974"><ele>186.8</ele></trkpt>
			<trkpt lat="38.203565" lon="-81.511929"><ele>186.8</ele></trkpt>
			<trkpt lat="38.203433" lon="-81.511754"><ele>187.3</ele></trkpt>
			<trkpt lat="38.203301" lon="-81.511573"><ele>187.6</ele></trkpt>
			<trkpt lat="38.203258" lon="-81.511533"><ele>187.5</ele></trkpt>
			<trkpt lat="38.203097" lon="-81.511377"><ele>187.7</ele></trkpt>
			<trkpt lat="38.203055" lon="-81.511338"><ele>187.7</ele></trkpt>
			<trkpt lat="38.202915" lon="-81.511189"><ele>187.2</ele></trkpt>
			<trkpt lat="38.202878" lon="-81.511141"><ele>186.5</ele></trkpt>
			<trkpt lat="38.202765" lon="-81.51098"><ele>186.2</ele></trkpt>
			<trkpt lat="38.202628" lon="-81.510804"><ele>186.8</ele></trkpt>
			<trkpt lat="38.20261" lon="-81.510779"><ele>187.4</ele></trkpt>
			<trkpt lat="38.202481" lon="-81.510601"><ele>187.9</ele></trkpt>
			<trkpt lat="38.202437" lon="-81.510545"><ele>187.8</ele></trkpt>
			<trkpt lat="38.202308" lon="-81.510384"><ele>188</ele></trkpt>
			<trkpt lat="38.202213" lon="-81.510261"><ele>188</ele></trkpt>
			<trkpt lat="38.202078" lon="-81.510085"><ele>187.4</ele></trkpt>
			<trkpt lat="38.202008" lon="-81.509981"><ele>187.4</ele></trkpt>
			<trkpt lat="38.201894" lon="-81.509783"><ele>187.8</ele></trkpt>
			<trkpt lat="38.201898" lon="-81.509755"><ele>188.1</ele></trkpt>
			<trkpt lat="38.201954" lon="-81.509627"><ele>188.7</ele></trkpt>
			<trkpt lat="38.201955" lon="-81.509597"><ele>188.7</ele></trkpt>
			<trkpt lat="38.201937" lon="-81.509539"><ele>188.8</ele></trkpt>
			<trkpt lat="38.201917" lon="-81.509508"><ele>188.9</ele></trkpt>
			<trkpt lat="38.20182" lon="-81.509311"><ele>189</ele></trkpt>
			<trkpt lat="38.201743" lon="-81.509167"><ele>189.2</ele></trkpt>
			<trkpt lat="38.201629" lon="-81.508959"><ele>189.5</ele></trkpt>
			<trkpt lat="38.201614" lon="-81.508939"><ele>189.5</ele></trkpt>
			<trkpt lat="38.201488" lon="-81.508736"><ele>189.6</ele></trkpt>
			<trkpt lat="38.201469" lon="-81.508702"><ele>189.6</ele></trkpt>
			<trkpt lat="38.201379" lon="-81.508507"><ele>189.6</ele></trkpt>
			<trkpt lat="38.201278" lon="-81.508295"><ele>189.8</ele></trkpt>
			<trkpt lat="38.201242" lon="-81.508233"><ele>189.9</ele></trkpt>
			<trkpt lat="38.2012056" lon="-81.508141"></trkpt>
			<trkpt lat="38.201218" lon="-81.508034"><ele>189.8</ele></trkpt>
			<trkpt lat="38.201309" lon="-81.507968"><ele>189.8</ele></trkpt>
			<trkpt lat="38.20145" lon="-81.507807"><ele>188.8</ele></trkpt>
			<trkpt lat="38.201475" lon="-81.507776"><ele>188.7</ele></trkpt>
			<trkpt lat="38.201623" lon="-81.507637"><ele>188</ele></trkpt>
			<trkpt lat="38.201687" lon="-81.507578"><ele>188.1</ele></trkpt>
			<trkpt lat="38.201808" lon="-81.507563"><ele>188.4</ele></trkpt>
			<trkpt lat="38.20189" lon="-81.507687"><ele>188.4</ele></trkpt>
			<trkpt lat="38.202009" lon="-81.507879"><ele>188.3</ele></trkpt>
			<trkpt lat="38.202071" lon="-81.507974"><ele>188.3</ele></trkpt>
			<trkpt lat="38.202186" lon="-81.508178"><ele>188.2</ele></trkpt>
			<trkpt lat="38.202217" lon="-81.50823"><ele>188.2</ele></trkpt>
			<trkpt lat="38.202343" lon="-81.5084"><ele>188.3</ele></trkpt>
			<trkpt lat="38.20239" lon="-81.50848"><ele>188.2</ele></trkpt>
			<trkpt lat="38.202518" lon="-81.50867"><ele>188.2</ele></trkpt>
			<trkpt lat="38.20254" lon="-81.508697"><ele>188.1</ele></trkpt>
			<trkpt lat="38.202672" lon="-81.508868"><ele>188</ele></trkpt>
			<trkpt lat="38.202747" lon="-81.508907"><ele>188.2</ele></trkpt>
			<trkpt lat="38.202845" lon="-81.50884"><ele>188.6</ele></trkpt>
			<trkpt lat="38.202998" lon="-81.508688"><ele>188.7</ele></trkpt>
			<trkpt lat="38.203154" lon="-81.508509"><ele>188.8</ele></trkpt>
			<trkpt lat="38.203292" lon="-81.508336"><ele>188.7</ele></trkpt>
			<trkpt lat="38.203312" lon="-81.508322"><ele>188.7</ele></trkpt>
			<trkpt lat="38.203479" lon="-81.508177"><ele>188.1</ele></trkpt>
			<trkpt lat="38.203506" lon="-81.508163"><ele>188.1</ele></trkpt>
			<trkpt lat="38.203679" lon="-81.508034"><ele>188.2</ele></trkpt>
			<trkpt lat="38.203744" lon="-81.507973"><ele>188.2</ele></trkpt>
			<trkpt lat="38.203892" lon="-81.5078"><ele>188.6</ele></trkpt>
			<trkpt lat="38.203924" lon="-81.507754"><ele>188.6</ele></trkpt>
			<trkpt lat="38.204086" lon="-81.507596"><ele>188.8</ele></trkpt>
			<trkpt lat="38.204126" lon="-81.507554"><ele>188.8</ele></trkpt>
			<trkpt lat="38.204268" lon="-81.507397"><ele>189.3</ele></trkpt>
			<trkpt lat="38.204305" lon="-81.507357"><ele>189.4</ele></trkpt>
			<trkpt lat="38.204474" lon="-81.507266"><ele>188.9</ele></trkpt>
			<trkpt lat="38.204584" lon="-81.507365"><ele>189</ele></trkpt>
			<trkpt lat="38.204723" lon="-81.507567"><ele>189</ele></trkpt>
			<trkpt lat="38.204743" lon="-81.507594"><ele>189</ele></trkpt>
			<trkpt lat="38.204886" lon="-81.50777"><ele>188.9</ele></trkpt>
			<trkpt lat="38.204932" lon="-81.507823"><ele>188.9</ele></trkpt>
			<trkpt lat="38.205069" lon="-81.508008"><ele>188.9</ele></trkpt>
			<trkpt lat="38.205109" lon="-81.50805"><ele>188.9</ele></trkpt>
			<trkpt lat="38.205234" lon="-81.508221"><ele>188.9</ele></trkpt>
			<trkpt lat="38.205297" lon="-81.508309"><ele>189</ele></trkpt>
			<trkpt lat="38.205442" lon="-81.508498"><ele>189</ele></trkpt>
			<trkpt lat="38.205486" lon="-81.508546"><ele>189</ele></trkpt>
			<trkpt lat="38.205641" lon="-81.508721"><ele>189.1</ele></trkpt>
			<trkpt lat="38.205664" lon="-81.508745"><ele>189.1</ele></trkpt>
			<trkpt lat="38.205828" lon="-81.508881"><ele>189.2</ele></trkpt>
			<trkpt lat="38.205895" lon="-81.508937"><ele>189.2</ele></trkpt>
			<trkpt lat="38.206071" lon="-81.509091"><ele>189.1</ele></trkpt>
			<trkpt lat="38.20621" lon="-81.509248"><ele>189</ele></trkpt>
			<trkpt lat="38.206325" lon="-81.509372"><ele>189</ele></trkpt>
			<trkpt lat="38.206471" lon="-81.509531"><ele>188.9</ele></trkpt>
			<trkpt lat="38.206517" lon="-81.509582"><ele>188.8</ele></trkpt>
			<trkpt lat="38.206652" lon="-81.509737"><ele>188.8</ele></trkpt>
			<trkpt lat="38.206697" lon="-81.509784"><ele>188.8</ele></trkpt>
			<trkpt lat="38.206826" lon="-81.509956"><ele>188.8</ele></trkpt>
			<trkpt lat="38.20686" lon="-81.510051"><ele>188.6</ele></trkpt>
			<trkpt lat="38.206834" lon="-81.510205"><ele>188.3</ele></trkpt>
			<trkpt lat="38.206722" lon="-81.510394"><ele>188.1</ele></trkpt>
			<trkpt lat="38.206671" lon="-81.510457"><ele>187.9</ele></trkpt>
			<trkpt lat="38.206554" lon="-81.510647"><ele>188.1</ele></trkpt>
			<trkpt lat="38.206495" lon="-81.510737"><ele>187.8</ele></trkpt>
			<trkpt lat="38.206368" lon="-81.510953"><ele>187.7</ele></trkpt>
			<trkpt lat="38.206283" lon="-81.511088"><ele>187.5</ele></trkpt>
			<trkpt lat="38.206167" lon="-81.511291"><ele>187.3</ele></trkpt>
			<trkpt lat="38.206095" lon="-81.51137"><ele>187.4</ele></trkpt>
			<trkpt lat="38.205966" lon="-81.511587"><ele>187.7</ele></trkpt>
			<trkpt lat="38.205897" lon="-81.511717"><ele>187.7</ele></trkpt>
			<trkpt lat="38.205778" lon="-81.511938"><ele>187.6</ele></trkpt>
			<trkpt lat="38.205744" lon="-81.512004"><ele>187.4</ele></trkpt>
			<trkpt lat="38.205617" lon="-81.512202"><ele>187</ele></trkpt>
			<trkpt lat="38.205598" lon="-81.512229"><ele>186.9</ele></trkpt>
			<trkpt lat="38.205498" lon="-81.512445"><ele>186.3</ele></trkpt>
			<trkpt lat="38.205503" lon="-81.512486"><ele>186.2</ele></trkpt>
			<trkpt lat="38.205589" lon="-81.512626"><ele>186.2</ele></trkpt>
			<trkpt lat="38.20575" lon="-81.512759"><ele>186.4</ele></trkpt>
			<trkpt lat="38.205795" lon="-81.512785"><ele>186.4</ele></trkpt>
			<trkpt lat="38.205911" lon="-81.512856"><ele>186.5</ele></trkpt>
			<trkpt lat="38.206068" lon="-81.512931"><ele>186.6</ele></trkpt>
			<trkpt lat="38.206238" lon="-81.51302"><ele>186.7</ele></trkpt>
			<trkpt lat="38.206398" lon="-81.513122"><ele>186.6</ele></trkpt>
			<trkpt lat="38.206555" lon="-81.513244"><ele>186.5</ele></trkpt>
			<trkpt lat="38.206699" lon="-81.513345"><ele>186.4</ele></trkpt>
			<trkpt lat="38.206781" lon="-81.51341"><ele>186.4</ele></trkpt>
		</trkseg>
	</trk>
</gpx>
