<?xml version="1.0" encoding="UTF-8"?>
<gpx version="1.1" creator="GPS Visualizer Sandbox https://www.gpsvisualizer.com/draw/" xmlns="http://www.topografix.com/GPX/1/1" xmlns:xsi="http://www.w3.org/2001/XMLSchema-instance" xmlns:gpxx="http://www.garmin.com/xmlschemas/GpxExtensions/v3" xsi:schemaLocation="http://www.topografix.com/GPX/1/1 http://www.topografix.com/GPX/1/1/gpx.xsd http://www.garmin.com/xmlschemas/GpxExtensions/v3 http://www.garmin.com/xmlschemas/GpxExtensionsv3.xsd">
	<trk>
		<name>Knight Night Relays</name>
		<desc>Length: 2.442 km (1.517 mi)</desc>
		<extensions>
			<gpxx:TrackExtension><gpxx:DisplayColor>Black</gpxx:DisplayColor></gpxx:TrackExtension>
		</extensions>
		<trkseg>
			<trkpt lat="39.4616747" lon="-79.676199"></trkpt>
			<trkpt lat="39.4621261" lon="-79.6761829"></trkpt>
			<trkpt lat="39.4622928" lon="-79.676148"></trkpt>
			<trkpt lat="39.4623726" lon="-79.6761547"></trkpt>
			<trkpt lat="39.46256" lon="-79.6761708"></trkpt>
			<trkpt lat="39.4626531" lon="-79.6761842"></trkpt>
			<trkpt lat="39.4627432" lon="-79.676203"></trkpt>
			<trkpt lat="39.4627712" lon="-79.6762218"></trkpt>
			<trkpt lat="39.4628354" lon="-79.6762499"></trkpt>
			<trkpt lat="39.4629555" lon="-79.6763197"></trkpt>
			<trkpt lat="39.4630409" lon="-79.6763713"></trkpt>
			<trkpt lat="39.4630922" lon="-79.6764048"></trkpt>
			<trkpt lat="39.4631915" lon="-79.6764618"></trkpt>
			<trkpt lat="39.4633272" lon="-79.676557"></trkpt>
			<trkpt lat="39.4635881" lon="-79.6767394"></trkpt>
			<trkpt lat="39.4636647" lon="-79.6767904"></trkpt>
			<trkpt lat="39.4637372" lon="-79.6768494"></trkpt>
			<trkpt lat="39.4637683" lon="-79.6768682"></trkpt>
			<trkpt lat="39.4638438" lon="-79.6769822"></trkpt>
			<trkpt lat="39.4638666" lon="-79.6770801"></trkpt>
			<trkpt lat="39.4638884" lon="-79.6772048"></trkpt>
			<trkpt lat="39.4638842" lon="-79.6772785"></trkpt>
			<trkpt lat="39.4638749" lon="-79.6773966"></trkpt>
			<trkpt lat="39.4638656" lon="-79.6776393"></trkpt>
			<trkpt lat="39.4638438" lon="-79.6777104"></trkpt>
			<trkpt lat="39.4638304" lon="-79.6777466"></trkpt>
			<trkpt lat="39.4637807" lon="-79.67776"></trkpt>
			<trkpt lat="39.463733" lon="-79.677764"></trkpt>
			<trkpt lat="39.4633945" lon="-79.6777895"></trkpt>
			<trkpt lat="39.463263" lon="-79.6778418"></trkpt>
			<trkpt lat="39.4631646" lon="-79.6778847"></trkpt>
			<trkpt lat="39.4630694" lon="-79.6779075"></trkpt>
			<trkpt lat="39.4629317" lon="-79.6778955"></trkpt>
			<trkpt lat="39.4628292" lon="-79.6778968"></trkpt>
			<trkpt lat="39.4625641" lon="-79.6779075"></trkpt>
			<trkpt lat="39.4624316" lon="-79.6779035"></trkpt>
			<trkpt lat="39.4623974" lon="-79.6779209"></trkpt>
			<trkpt lat="39.4623912" lon="-79.6779813"></trkpt>
			<trkpt lat="39.4623912" lon="-79.6780698"></trkpt>
			<trkpt lat="39.4623922" lon="-79.6785915"></trkpt>
			<trkpt lat="39.4623902" lon="-79.6786746"></trkpt>
			<trkpt lat="39.4624202" lon="-79.6788436"></trkpt>
			<trkpt lat="39.4624678" lon="-79.6789643"></trkpt>
			<trkpt lat="39.4625289" lon="-79.6790649"></trkpt>
			<trkpt lat="39.462591" lon="-79.6791011"></trkpt>
			<trkpt lat="39.4627733" lon="-79.6791896"></trkpt>
			<trkpt lat="39.4628954" lon="-79.6792392"></trkpt>
			<trkpt lat="39.4630859" lon="-79.6792459"></trkpt>
			<trkpt lat="39.4631739" lon="-79.67925"></trkpt>
			<trkpt lat="39.463263" lon="-79.679258"></trkpt>
			<trkpt lat="39.463352" lon="-79.6792553"></trkpt>
			<trkpt lat="39.4635198" lon="-79.6791762"></trkpt>
			<trkpt lat="39.4636533" lon="-79.6790475"></trkpt>
			<trkpt lat="39.463732" lon="-79.6790314"></trkpt>
			<trkpt lat="39.4638231" lon="-79.679026"></trkpt>
			<trkpt lat="39.4641689" lon="-79.6790206"></trkpt>
			<trkpt lat="39.4642549" lon="-79.6789952"></trkpt>
			<trkpt lat="39.4643191" lon="-79.6789871"></trkpt>
			<trkpt lat="39.4643491" lon="-79.6790354"></trkpt>
			<trkpt lat="39.4643429" lon="-79.6790864"></trkpt>
			<trkpt lat="39.4643429" lon="-79.6792379"></trkpt>
			<trkpt lat="39.4643729" lon="-79.6793009"></trkpt>
			<trkpt lat="39.4645355" lon="-79.6794847"></trkpt>
			<trkpt lat="39.464756" lon="-79.6797113"></trkpt>
			<trkpt lat="39.4647767" lon="-79.6797046"></trkpt>
			<trkpt lat="39.4648005" lon="-79.6796885"></trkpt>
			<trkpt lat="39.4648264" lon="-79.6796496"></trkpt>
			<trkpt lat="39.4648688" lon="-79.6795383"></trkpt>
			<trkpt lat="39.4648978" lon="-79.6794793"></trkpt>
			<trkpt lat="39.4649444" lon="-79.6794686"></trkpt>
			<trkpt lat="39.4649889" lon="-79.6794941"></trkpt>
			<trkpt lat="39.4650376" lon="-79.6795236"></trkpt>
			<trkpt lat="39.4650656" lon="-79.6795785"></trkpt>
			<trkpt lat="39.4650697" lon="-79.6796215"></trkpt>
			<trkpt lat="39.4650397" lon="-79.6796684"></trkpt>
			<trkpt lat="39.4648295" lon="-79.679938"></trkpt>
			<trkpt lat="39.4647653" lon="-79.6799956"></trkpt>
			<trkpt lat="39.4647394" lon="-79.6800399"></trkpt>
			<trkpt lat="39.464699" lon="-79.6800935"></trkpt>
			<trkpt lat="39.4642311" lon="-79.6807306"></trkpt>
			<trkpt lat="39.4641772" lon="-79.6807641"></trkpt>
			<trkpt lat="39.4641234" lon="-79.6807694"></trkpt>
			<trkpt lat="39.4640644" lon="-79.6807265"></trkpt>
			<trkpt lat="39.4635767" lon="-79.6803041"></trkpt>
			<trkpt lat="39.4631584" lon="-79.6799728"></trkpt>
			<trkpt lat="39.4622442" lon="-79.6792406"></trkpt>
			<trkpt lat="39.4621852" lon="-79.6792104"></trkpt>
			<trkpt lat="39.4621003" lon="-79.6792151"></trkpt>
			<trkpt lat="39.4615929" lon="-79.6792258"></trkpt>
			<trkpt lat="39.4615391" lon="-79.6792191"></trkpt>
			<trkpt lat="39.4614935" lon="-79.6792044"></trkpt>
			<trkpt lat="39.4614759" lon="-79.6791615"></trkpt>
			<trkpt lat="39.4614573" lon="-79.6791252"></trkpt>
			<trkpt lat="39.4614935" lon="-79.6790797"></trkpt>
			<trkpt lat="39.461567" lon="-79.6790649"></trkpt>
			<trkpt lat="39.4616975" lon="-79.6790515"></trkpt>
			<trkpt lat="39.4623943" lon="-79.6789952"></trkpt>
			<trkpt lat="39.4624709" lon="-79.6790113"></trkpt>
			<trkpt lat="39.4625424" lon="-79.6790233"></trkpt>
			<trkpt lat="39.4626842" lon="-79.6790126"></trkpt>
			<trkpt lat="39.4627463" lon="-79.6789965"></trkpt>
			<trkpt lat="39.4627795" lon="-79.6789576"></trkpt>
			<trkpt lat="39.4628198" lon="-79.6789549"></trkpt>
			<trkpt lat="39.4628892" lon="-79.6789134"></trkpt>
			<trkpt lat="39.4629555" lon="-79.6788973"></trkpt>
			<trkpt lat="39.4629938" lon="-79.6788798"></trkpt>
			<trkpt lat="39.4634659" lon="-79.6788624"></trkpt>
			<trkpt lat="39.463936" lon="-79.6788503"></trkpt>
			<trkpt lat="39.4640022" lon="-79.6788289"></trkpt>
			<trkpt lat="39.4640499" lon="-79.67879"></trkpt>
			<trkpt lat="39.4640913" lon="-79.6787524"></trkpt>
			<trkpt lat="39.4641161" lon="-79.6787162"></trkpt>
			<trkpt lat="39.464141" lon="-79.6786787"></trkpt>
			<trkpt lat="39.4641617" lon="-79.6786116"></trkpt>
			<trkpt lat="39.4641731" lon="-79.6785781"></trkpt>
			<trkpt lat="39.4641803" lon="-79.6785325"></trkpt>
			<trkpt lat="39.4641803" lon="-79.6784922"></trkpt>
			<trkpt lat="39.4641731" lon="-79.6784426"></trkpt>
			<trkpt lat="39.4641648" lon="-79.6783957"></trkpt>
			<trkpt lat="39.4641493" lon="-79.6783394"></trkpt>
			<trkpt lat="39.4641368" lon="-79.6783139"></trkpt>
			<trkpt lat="39.4641099" lon="-79.6782562"></trkpt>
			<trkpt lat="39.4640592" lon="-79.6781932"></trkpt>
			<trkpt lat="39.4640074" lon="-79.6781597"></trkpt>
			<trkpt lat="39.4639422" lon="-79.6781301"></trkpt>
			<trkpt lat="39.4638925" lon="-79.6781275"></trkpt>
			<trkpt lat="39.4630456" lon="-79.6781462"></trkpt>
			<trkpt lat="39.4629679" lon="-79.6781462"></trkpt>
			<trkpt lat="39.4629327" lon="-79.6781489"></trkpt>
			<trkpt lat="39.4629016" lon="-79.678157"></trkpt>
			<trkpt lat="39.4628385" lon="-79.6781945"></trkpt>
			<trkpt lat="39.4628022" lon="-79.6782254"></trkpt>
			<trkpt lat="39.4627691" lon="-79.6782576"></trkpt>
			<trkpt lat="39.4627329" lon="-79.6783206"></trkpt>
			<trkpt lat="39.4626997" lon="-79.6784279"></trkpt>
			<trkpt lat="39.4626915" lon="-79.6784869"></trkpt>
			<trkpt lat="39.4626904" lon="-79.6785392"></trkpt>
			<trkpt lat="39.4626708" lon="-79.6785928"></trkpt>
			<trkpt lat="39.462619" lon="-79.6786036"></trkpt>
			<trkpt lat="39.4625651" lon="-79.6786049"></trkpt>
			<trkpt lat="39.462474" lon="-79.6785955"></trkpt>
			<trkpt lat="39.4624751" lon="-79.6785432"></trkpt>
			<trkpt lat="39.4624678" lon="-79.6783984"></trkpt>
			<trkpt lat="39.4624626" lon="-79.6782978"></trkpt>
			<trkpt lat="39.4624637" lon="-79.6781623"></trkpt>
			<trkpt lat="39.4624616" lon="-79.6780188"></trkpt>
			<trkpt lat="39.4624575" lon="-79.6779679"></trkpt>
			<trkpt lat="39.4624668" lon="-79.6778901"></trkpt>
			<trkpt lat="39.4625248" lon="-79.677882"></trkpt>
			<trkpt lat="39.4625879" lon="-79.6778807"></trkpt>
			<trkpt lat="39.46265" lon="-79.6778713"></trkpt>
			<trkpt lat="39.4627194" lon="-79.6778525"></trkpt>
			<trkpt lat="39.4627557" lon="-79.6777613"></trkpt>
			<trkpt lat="39.4627588" lon="-79.6775253"></trkpt>
			<trkpt lat="39.4627805" lon="-79.6773402"></trkpt>
			<trkpt lat="39.462795" lon="-79.6771632"></trkpt>
			<trkpt lat="39.4628126" lon="-79.6770667"></trkpt>
			<trkpt lat="39.4627971" lon="-79.6770237"></trkpt>
			<trkpt lat="39.4627298" lon="-79.6770144"></trkpt>
			<trkpt lat="39.4626759" lon="-79.677017"></trkpt>
			<trkpt lat="39.4625579" lon="-79.677009"></trkpt>
			<trkpt lat="39.4624285" lon="-79.6769808"></trkpt>
			<trkpt lat="39.4623394" lon="-79.6769701"></trkpt>
			<trkpt lat="39.462267" lon="-79.6769272"></trkpt>
			<trkpt lat="39.4622245" lon="-79.6768977"></trkpt>
			<trkpt lat="39.4621044" lon="-79.6768641"></trkpt>
			<trkpt lat="39.461567" lon="-79.6768346"></trkpt>
			<trkpt lat="39.461158" lon="-79.6768481"></trkpt>
			<trkpt lat="39.4611239" lon="-79.676832"></trkpt>
			<trkpt lat="39.4611156" lon="-79.6767958"></trkpt>
			<trkpt lat="39.4611166" lon="-79.676726"></trkpt>
			<trkpt lat="39.4611166" lon="-79.6765584"></trkpt>
			<trkpt lat="39.4611135" lon="-79.6764095"></trkpt>
			<trkpt lat="39.4611104" lon="-79.6762499"></trkpt>
			<trkpt lat="39.4611146" lon="-79.6761949"></trkpt>
			<trkpt lat="39.4611384" lon="-79.6761909"></trkpt>
			<trkpt lat="39.4611808" lon="-79.6761882"></trkpt>
			<trkpt lat="39.4612274" lon="-79.6761896"></trkpt>
			<trkpt lat="39.4616747" lon="-79.6761788"></trkpt>
		</trkseg>
	</trk>
</gpx>
