<?xml version="1.0" encoding="utf-8" standalone="yes"?>
<gpx version="1.1" creator="GPS Visualizer https://www.gpsvisualizer.com/" xmlns="http://www.topografix.com/GPX/1/1" xmlns:xsi="http://www.w3.org/2001/XMLSchema-instance" xsi:schemaLocation="http://www.topografix.com/GPX/1/1 http://www.topografix.com/GPX/1/1/gpx.xsd http://www.garmin.com/xmlschemas/TrackPointExtension/v2 http://www.garmin.com/xmlschemas/TrackPointExtensionv2.xsd http://www.garmin.com/xmlschemas/GpxExtensions/v3 http://www.garmin.com/xmlschemas/GpxExtensionsv3.xsd" xmlns:gpxtpx="http://www.garmin.com/xmlschemas/TrackPointExtension/v2" xmlns:gpxx="http://www.garmin.com/xmlschemas/GpxExtensions/v3">
<trk>
  <name>St. Mary's High School 5k</name>
  <desc>Length: 4.995 km (3.104 mi)</desc>
  <trkseg>
    <trkpt lat="39.4238878" lon="-81.1803914">
      <ele>195.28</ele>
    </trkpt>
    <trkpt lat="39.4237097" lon="-81.1805912">
      <ele>194.939</ele>
    </trkpt>
    <trkpt lat="39.4236635" lon="-81.1806919">
      <ele>194.814</ele>
    </trkpt>
    <trkpt lat="39.4235965" lon="-81.1808111">
      <ele>194.574</ele>
    </trkpt>
    <trkpt lat="39.4235297" lon="-81.18098">
      <ele>194.41</ele>
    </trkpt>
    <trkpt lat="39.423538" lon="-81.1810735">
      <ele>194.286</ele>
    </trkpt>
    <trkpt lat="39.423509" lon="-81.1811562">
      <ele>194.157</ele>
    </trkpt>
    <trkpt lat="39.4233136" lon="-81.1813512">
      <ele>193.74</ele>
    </trkpt>
    <trkpt lat="39.4231188" lon="-81.1815399">
      <ele>193.362</ele>
    </trkpt>
    <trkpt lat="39.4230186" lon="-81.1816389">
      <ele>193.206</ele>
    </trkpt>
    <trkpt lat="39.4229663" lon="-81.1816699">
      <ele>193.131</ele>
    </trkpt>
    <trkpt lat="39.4229506" lon="-81.1816747">
      <ele>193.114</ele>
    </trkpt>
    <trkpt lat="39.422937" lon="-81.1816744">
      <ele>193.104</ele>
    </trkpt>
    <trkpt lat="39.4229265" lon="-81.1816513">
      <ele>193.129</ele>
    </trkpt>
    <trkpt lat="39.4229062" lon="-81.1816163">
      <ele>193.154</ele>
    </trkpt>
    <trkpt lat="39.4228554" lon="-81.1815341">
      <ele>193.181</ele>
    </trkpt>
    <trkpt lat="39.4227901" lon="-81.1813987">
      <ele>193.377</ele>
    </trkpt>
    <trkpt lat="39.4227947" lon="-81.1813302">
      <ele>193.535</ele>
    </trkpt>
    <trkpt lat="39.4228792" lon="-81.1811994">
      <ele>193.679</ele>
    </trkpt>
    <trkpt lat="39.42303" lon="-81.181046">
      <ele>193.883</ele>
    </trkpt>
    <trkpt lat="39.4231555" lon="-81.1809071">
      <ele>193.926</ele>
    </trkpt>
    <trkpt lat="39.4232434" lon="-81.1807637">
      <ele>194.091</ele>
    </trkpt>
    <trkpt lat="39.4232837" lon="-81.1806944">
      <ele>194.196</ele>
    </trkpt>
    <trkpt lat="39.4233118" lon="-81.1806359">
      <ele>194.303</ele>
    </trkpt>
    <trkpt lat="39.4232968" lon="-81.1806154">
      <ele>194.326</ele>
    </trkpt>
    <trkpt lat="39.4232801" lon="-81.1805994">
      <ele>194.348</ele>
    </trkpt>
    <trkpt lat="39.4232503" lon="-81.1805603">
      <ele>194.421</ele>
    </trkpt>
    <trkpt lat="39.4232343" lon="-81.1805366">
      <ele>194.476</ele>
    </trkpt>
    <trkpt lat="39.4231679" lon="-81.180463">
      <ele>194.742</ele>
    </trkpt>
    <trkpt lat="39.4230561" lon="-81.1802988">
      <ele>195.247</ele>
    </trkpt>
    <trkpt lat="39.4230405" lon="-81.1802714">
      <ele>195.313</ele>
    </trkpt>
    <trkpt lat="39.4230226" lon="-81.1802407">
      <ele>195.385</ele>
    </trkpt>
    <trkpt lat="39.4230268" lon="-81.1802077">
      <ele>195.418</ele>
    </trkpt>
    <trkpt lat="39.4230278" lon="-81.1801795">
      <ele>195.45</ele>
    </trkpt>
    <trkpt lat="39.4230358" lon="-81.1801684">
      <ele>195.449</ele>
    </trkpt>
    <trkpt lat="39.4230821" lon="-81.1800808">
      <ele>195.444</ele>
    </trkpt>
    <trkpt lat="39.4232061" lon="-81.1799471">
      <ele>195.447</ele>
    </trkpt>
    <trkpt lat="39.4234085" lon="-81.1797958">
      <ele>195.128</ele>
    </trkpt>
    <trkpt lat="39.4235069" lon="-81.1796932">
      <ele>195.242</ele>
    </trkpt>
    <trkpt lat="39.4240048" lon="-81.1804955">
      <ele>195.269</ele>
    </trkpt>
    <trkpt lat="39.4240188" lon="-81.1805166">
      <ele>195.25</ele>
    </trkpt>
    <trkpt lat="39.4240369" lon="-81.1805163">
      <ele>195.26</ele>
    </trkpt>
    <trkpt lat="39.4240742" lon="-81.1805009">
      <ele>195.297</ele>
    </trkpt>
    <trkpt lat="39.4241342" lon="-81.1804876">
      <ele>195.345</ele>
    </trkpt>
    <trkpt lat="39.424176" lon="-81.180483">
      <ele>195.373</ele>
    </trkpt>
    <trkpt lat="39.4242446" lon="-81.1804422">
      <ele>195.498</ele>
    </trkpt>
    <trkpt lat="39.4252079" lon="-81.1795711">
      <ele>195.712</ele>
    </trkpt>
    <trkpt lat="39.4253965" lon="-81.1793751">
      <ele>195.515</ele>
    </trkpt>
    <trkpt lat="39.4254655" lon="-81.1793052">
      <ele>195.483</ele>
    </trkpt>
    <trkpt lat="39.425465" lon="-81.1792299">
      <ele>195.523</ele>
    </trkpt>
    <trkpt lat="39.4253874" lon="-81.179078">
      <ele>195.71</ele>
    </trkpt>
    <trkpt lat="39.4247982" lon="-81.1783596">
      <ele>196.715</ele>
    </trkpt>
    <trkpt lat="39.4239267" lon="-81.1772602">
      <ele>201.132</ele>
    </trkpt>
    <trkpt lat="39.4242209" lon="-81.1768094">
      <ele>200.756</ele>
    </trkpt>
    <trkpt lat="39.4242723" lon="-81.1766663">
      <ele>199.95</ele>
    </trkpt>
    <trkpt lat="39.4243361" lon="-81.1765428">
      <ele>198.988</ele>
    </trkpt>
    <trkpt lat="39.424312" lon="-81.176467">
      <ele>198.957</ele>
    </trkpt>
    <trkpt lat="39.424288" lon="-81.1763912">
      <ele>198.997</ele>
    </trkpt>
    <trkpt lat="39.4242775" lon="-81.1763513">
      <ele>198.997</ele>
    </trkpt>
    <trkpt lat="39.4242753" lon="-81.1763141">
      <ele>198.934</ele>
    </trkpt>
    <trkpt lat="39.4242968" lon="-81.1762702">
      <ele>198.695</ele>
    </trkpt>
    <trkpt lat="39.4243336" lon="-81.176215">
      <ele>198.647</ele>
    </trkpt>
    <trkpt lat="39.4244696" lon="-81.1760629">
      <ele>199.1</ele>
    </trkpt>
    <trkpt lat="39.42452" lon="-81.1760152">
      <ele>199.338</ele>
    </trkpt>
    <trkpt lat="39.4250506" lon="-81.1756927">
      <ele>199.289</ele>
    </trkpt>
    <trkpt lat="39.4253334" lon="-81.1754607">
      <ele>199.815</ele>
    </trkpt>
    <trkpt lat="39.4254725" lon="-81.1752031">
      <ele>201.348</ele>
    </trkpt>
    <trkpt lat="39.4255981" lon="-81.1749368">
      <ele>203.138</ele>
    </trkpt>
    <trkpt lat="39.4257903" lon="-81.1747768">
      <ele>202.751</ele>
    </trkpt>
    <trkpt lat="39.4260609" lon="-81.1744747">
      <ele>203.023</ele>
    </trkpt>
    <trkpt lat="39.4261721" lon="-81.1743205">
      <ele>203.445</ele>
    </trkpt>
    <trkpt lat="39.4263083" lon="-81.1741534">
      <ele>203.387</ele>
    </trkpt>
    <trkpt lat="39.4264442" lon="-81.1740301">
      <ele>202.748</ele>
    </trkpt>
    <trkpt lat="39.4265953" lon="-81.1738073">
      <ele>203.137</ele>
    </trkpt>
    <trkpt lat="39.4267677" lon="-81.1734518">
      <ele>205.244</ele>
    </trkpt>
    <trkpt lat="39.4269215" lon="-81.1731514">
      <ele>206.228</ele>
    </trkpt>
    <trkpt lat="39.4271555" lon="-81.1728597">
      <ele>206.091</ele>
    </trkpt>
    <trkpt lat="39.4276474" lon="-81.1723318">
      <ele>203.547</ele>
    </trkpt>
    <trkpt lat="39.427848" lon="-81.172109">
      <ele>202.531</ele>
    </trkpt>
    <trkpt lat="39.4280823" lon="-81.1715801">
      <ele>204.31</ele>
    </trkpt>
    <trkpt lat="39.4282796" lon="-81.1711997">
      <ele>204.418</ele>
    </trkpt>
    <trkpt lat="39.4283753" lon="-81.1710165">
      <ele>204.4</ele>
    </trkpt>
    <trkpt lat="39.4284678" lon="-81.1708657">
      <ele>203.472</ele>
    </trkpt>
    <trkpt lat="39.4285704" lon="-81.1708256">
      <ele>202.67</ele>
    </trkpt>
    <trkpt lat="39.42869" lon="-81.1708667">
      <ele>201.135</ele>
    </trkpt>
    <trkpt lat="39.4287778" lon="-81.1709112">
      <ele>200.073</ele>
    </trkpt>
    <trkpt lat="39.4288487" lon="-81.1709938">
      <ele>199.229</ele>
    </trkpt>
    <trkpt lat="39.4288923" lon="-81.1710582">
      <ele>198.707</ele>
    </trkpt>
    <trkpt lat="39.4289258" lon="-81.1711403">
      <ele>198.267</ele>
    </trkpt>
    <trkpt lat="39.4289418" lon="-81.1712025">
      <ele>198.023</ele>
    </trkpt>
    <trkpt lat="39.4289124" lon="-81.1713206">
      <ele>197.593</ele>
    </trkpt>
    <trkpt lat="39.4288333" lon="-81.1714332">
      <ele>197.197</ele>
    </trkpt>
    <trkpt lat="39.4286557" lon="-81.1716217">
      <ele>196.968</ele>
    </trkpt>
    <trkpt lat="39.4285569" lon="-81.1717791">
      <ele>196.654</ele>
    </trkpt>
    <trkpt lat="39.4282763" lon="-81.1722526">
      <ele>196.808</ele>
    </trkpt>
    <trkpt lat="39.4282048" lon="-81.1724196">
      <ele>196.309</ele>
    </trkpt>
    <trkpt lat="39.4280393" lon="-81.1730488">
      <ele>194.939</ele>
    </trkpt>
    <trkpt lat="39.4278355" lon="-81.1734362">
      <ele>193.155</ele>
    </trkpt>
    <trkpt lat="39.4277879" lon="-81.1736043">
      <ele>193.452</ele>
    </trkpt>
    <trkpt lat="39.4278107" lon="-81.1737053">
      <ele>193.581</ele>
    </trkpt>
    <trkpt lat="39.4277487" lon="-81.1739047">
      <ele>194.04</ele>
    </trkpt>
    <trkpt lat="39.4276018" lon="-81.1740611">
      <ele>193.865</ele>
    </trkpt>
    <trkpt lat="39.4274424" lon="-81.1741156">
      <ele>194.006</ele>
    </trkpt>
    <trkpt lat="39.4266594" lon="-81.1746962">
      <ele>195.459</ele>
    </trkpt>
    <trkpt lat="39.4263503" lon="-81.1749803">
      <ele>195.971</ele>
    </trkpt>
    <trkpt lat="39.425991" lon="-81.1753108">
      <ele>196.795</ele>
    </trkpt>
    <trkpt lat="39.4256444" lon="-81.1755713">
      <ele>197.663</ele>
    </trkpt>
    <trkpt lat="39.4254567" lon="-81.1757655">
      <ele>197.655</ele>
    </trkpt>
    <trkpt lat="39.4253743" lon="-81.1759243">
      <ele>197.82</ele>
    </trkpt>
    <trkpt lat="39.4253535" lon="-81.1760265">
      <ele>197.868</ele>
    </trkpt>
    <trkpt lat="39.425348" lon="-81.1761265">
      <ele>197.826</ele>
    </trkpt>
    <trkpt lat="39.425359" lon="-81.1762198">
      <ele>197.771</ele>
    </trkpt>
    <trkpt lat="39.4253776" lon="-81.1763055">
      <ele>197.289</ele>
    </trkpt>
    <trkpt lat="39.4254466" lon="-81.1763489">
      <ele>196.843</ele>
    </trkpt>
    <trkpt lat="39.425572" lon="-81.1763908">
      <ele>196.227</ele>
    </trkpt>
    <trkpt lat="39.425695" lon="-81.1763969">
      <ele>195.941</ele>
    </trkpt>
    <trkpt lat="39.4258267" lon="-81.1764369">
      <ele>195.341</ele>
    </trkpt>
    <trkpt lat="39.4259347" lon="-81.1763956">
      <ele>195.203</ele>
    </trkpt>
    <trkpt lat="39.4263653" lon="-81.1761457">
      <ele>194.343</ele>
    </trkpt>
    <trkpt lat="39.4268287" lon="-81.1758498">
      <ele>194.366</ele>
    </trkpt>
    <trkpt lat="39.427507" lon="-81.1750775">
      <ele>195.685</ele>
    </trkpt>
    <trkpt lat="39.427655" lon="-81.1749294">
      <ele>195.718</ele>
    </trkpt>
    <trkpt lat="39.4277838" lon="-81.1748155">
      <ele>195.665</ele>
    </trkpt>
    <trkpt lat="39.4279773" lon="-81.174752">
      <ele>195.268</ele>
    </trkpt>
    <trkpt lat="39.4283783" lon="-81.1746868">
      <ele>193.72</ele>
    </trkpt>
    <trkpt lat="39.4286042" lon="-81.1745193">
      <ele>193.349</ele>
    </trkpt>
    <trkpt lat="39.4287509" lon="-81.1744654">
      <ele>193.087</ele>
    </trkpt>
    <trkpt lat="39.4288109" lon="-81.1744915">
      <ele>193.242</ele>
    </trkpt>
    <trkpt lat="39.4288583" lon="-81.1745497">
      <ele>193.361</ele>
    </trkpt>
    <trkpt lat="39.4289009" lon="-81.1746098">
      <ele>193.467</ele>
    </trkpt>
    <trkpt lat="39.4289209" lon="-81.1747027">
      <ele>193.471</ele>
    </trkpt>
    <trkpt lat="39.4289092" lon="-81.1748325">
      <ele>193.324</ele>
    </trkpt>
    <trkpt lat="39.4288296" lon="-81.1749169">
      <ele>192.769</ele>
    </trkpt>
    <trkpt lat="39.4286828" lon="-81.1749471">
      <ele>192.14</ele>
    </trkpt>
    <trkpt lat="39.4286221" lon="-81.1749321">
      <ele>192.096</ele>
    </trkpt>
    <trkpt lat="39.4285722" lon="-81.1749567">
      <ele>191.759</ele>
    </trkpt>
    <trkpt lat="39.4285508" lon="-81.1750278">
      <ele>190.935</ele>
    </trkpt>
    <trkpt lat="39.4285615" lon="-81.1751288">
      <ele>189.967</ele>
    </trkpt>
    <trkpt lat="39.4285452" lon="-81.1751951">
      <ele>189.348</ele>
    </trkpt>
    <trkpt lat="39.4284895" lon="-81.1752694">
      <ele>188.326</ele>
    </trkpt>
    <trkpt lat="39.4283812" lon="-81.1753658">
      <ele>187.686</ele>
    </trkpt>
    <trkpt lat="39.4282016" lon="-81.1756259">
      <ele>187.54</ele>
    </trkpt>
    <trkpt lat="39.4279626" lon="-81.1758446">
      <ele>188.522</ele>
    </trkpt>
    <trkpt lat="39.4276364" lon="-81.1762077">
      <ele>188.997</ele>
    </trkpt>
    <trkpt lat="39.4273281" lon="-81.1767135">
      <ele>189.958</ele>
    </trkpt>
    <trkpt lat="39.4271521" lon="-81.1769047">
      <ele>190.712</ele>
    </trkpt>
    <trkpt lat="39.4269519" lon="-81.1770598">
      <ele>191.001</ele>
    </trkpt>
    <trkpt lat="39.4267569" lon="-81.1772464">
      <ele>192.062</ele>
    </trkpt>
    <trkpt lat="39.4265068" lon="-81.1773066">
      <ele>193.016</ele>
    </trkpt>
    <trkpt lat="39.4262693" lon="-81.1773336">
      <ele>194.015</ele>
    </trkpt>
    <trkpt lat="39.4260246" lon="-81.1773174">
      <ele>194.889</ele>
    </trkpt>
    <trkpt lat="39.425878" lon="-81.1773166">
      <ele>195.523</ele>
    </trkpt>
    <trkpt lat="39.4257306" lon="-81.1772675">
      <ele>195.789</ele>
    </trkpt>
    <trkpt lat="39.4255141" lon="-81.1771123">
      <ele>195.3</ele>
    </trkpt>
    <trkpt lat="39.4252987" lon="-81.1769644">
      <ele>195.464</ele>
    </trkpt>
    <trkpt lat="39.4248153" lon="-81.1765092">
      <ele>196.74</ele>
    </trkpt>
    <trkpt lat="39.4246915" lon="-81.1764569">
      <ele>197.271</ele>
    </trkpt>
    <trkpt lat="39.4246309" lon="-81.1764451">
      <ele>197.444</ele>
    </trkpt>
    <trkpt lat="39.4245955" lon="-81.1764357">
      <ele>197.538</ele>
    </trkpt>
    <trkpt lat="39.4245524" lon="-81.1764342">
      <ele>197.719</ele>
    </trkpt>
    <trkpt lat="39.424528" lon="-81.176421">
      <ele>197.842</ele>
    </trkpt>
    <trkpt lat="39.424499" lon="-81.1764309">
      <ele>197.981</ele>
    </trkpt>
    <trkpt lat="39.4244693" lon="-81.1764352">
      <ele>198.128</ele>
    </trkpt>
    <trkpt lat="39.4244418" lon="-81.1764605">
      <ele>198.277</ele>
    </trkpt>
    <trkpt lat="39.4244062" lon="-81.1764943">
      <ele>198.491</ele>
    </trkpt>
    <trkpt lat="39.424376" lon="-81.1765428">
      <ele>198.756</ele>
    </trkpt>
    <trkpt lat="39.4243203" lon="-81.1765948">
      <ele>199.302</ele>
    </trkpt>
    <trkpt lat="39.4242635" lon="-81.1767057">
      <ele>200.161</ele>
    </trkpt>
    <trkpt lat="39.4239832" lon="-81.1771699">
      <ele>201.106</ele>
    </trkpt>
    <trkpt lat="39.4239517" lon="-81.1772911">
      <ele>201.1</ele>
    </trkpt>
    <trkpt lat="39.425352" lon="-81.1790492">
      <ele>195.781</ele>
    </trkpt>
    <trkpt lat="39.4254767" lon="-81.1792463">
      <ele>195.507</ele>
    </trkpt>
    <trkpt lat="39.4254707" lon="-81.1792445">
      <ele>195.512</ele>
    </trkpt>
    <trkpt lat="39.4254735" lon="-81.1792752">
      <ele>195.495</ele>
    </trkpt>
    <trkpt lat="39.4254648" lon="-81.1793045">
      <ele>195.483</ele>
    </trkpt>
    <trkpt lat="39.4250071" lon="-81.1797595">
      <ele>195.784</ele>
    </trkpt>
    <trkpt lat="39.4242863" lon="-81.1804051">
      <ele>195.611</ele>
    </trkpt>
    <trkpt lat="39.4242419" lon="-81.1804459">
      <ele>195.488</ele>
    </trkpt>
    <trkpt lat="39.4241706" lon="-81.1804855">
      <ele>195.365</ele>
    </trkpt>
    <trkpt lat="39.4240619" lon="-81.180503">
      <ele>195.289</ele>
    </trkpt>
    <trkpt lat="39.4240287" lon="-81.1805179">
      <ele>195.255</ele>
    </trkpt>
    <trkpt lat="39.4239956" lon="-81.18049">
      <ele>195.269</ele>
    </trkpt>
    <trkpt lat="39.423522" lon="-81.1797183">
      <ele>195.249</ele>
    </trkpt>
    <trkpt lat="39.4234772" lon="-81.1797181">
      <ele>195.12</ele>
    </trkpt>
    <trkpt lat="39.4233809" lon="-81.1798191">
      <ele>195.166</ele>
    </trkpt>
    <trkpt lat="39.4232371" lon="-81.1799225">
      <ele>195.404</ele>
    </trkpt>
    <trkpt lat="39.4231207" lon="-81.1800396">
      <ele>195.428</ele>
    </trkpt>
    <trkpt lat="39.4230826" lon="-81.1800793">
      <ele>195.444</ele>
    </trkpt>
    <trkpt lat="39.423055" lon="-81.180131">
      <ele>195.455</ele>
    </trkpt>
    <trkpt lat="39.4230293" lon="-81.1801786">
      <ele>195.449</ele>
    </trkpt>
    <trkpt lat="39.4230261" lon="-81.1802391">
      <ele>195.381</ele>
    </trkpt>
    <trkpt lat="39.4230397" lon="-81.1802754">
      <ele>195.309</ele>
    </trkpt>
    <trkpt lat="39.4230553" lon="-81.1803007">
      <ele>195.247</ele>
    </trkpt>
    <trkpt lat="39.4231503" lon="-81.1804359">
      <ele>194.848</ele>
    </trkpt>
    <trkpt lat="39.4231759" lon="-81.1804775">
      <ele>194.688</ele>
    </trkpt>
    <trkpt lat="39.4232145" lon="-81.1805131">
      <ele>194.541</ele>
    </trkpt>
    <trkpt lat="39.4233109" lon="-81.1806341">
      <ele>194.305</ele>
    </trkpt>
    <trkpt lat="39.4231731" lon="-81.1808827">
      <ele>193.93</ele>
    </trkpt>
    <trkpt lat="39.4230543" lon="-81.1810154">
      <ele>193.904</ele>
    </trkpt>
    <trkpt lat="39.4229169" lon="-81.1811643">
      <ele>193.685</ele>
    </trkpt>
    <trkpt lat="39.4228228" lon="-81.1812857">
      <ele>193.6</ele>
    </trkpt>
    <trkpt lat="39.4228056" lon="-81.1813179">
      <ele>193.553</ele>
    </trkpt>
    <trkpt lat="39.4227873" lon="-81.1813616">
      <ele>193.465</ele>
    </trkpt>
    <trkpt lat="39.4227912" lon="-81.1813854">
      <ele>193.408</ele>
    </trkpt>
    <trkpt lat="39.4228382" lon="-81.1815054">
      <ele>193.198</ele>
    </trkpt>
    <trkpt lat="39.4229026" lon="-81.1816311">
      <ele>193.126</ele>
    </trkpt>
    <trkpt lat="39.422919" lon="-81.1816606">
      <ele>193.11</ele>
    </trkpt>
    <trkpt lat="39.422921" lon="-81.1816786">
      <ele>193.086</ele>
    </trkpt>
    <trkpt lat="39.4229204" lon="-81.1816893">
      <ele>193.07</ele>
    </trkpt>
    <trkpt lat="39.4229085" lon="-81.1816987">
      <ele>193.039</ele>
    </trkpt>
    <trkpt lat="39.4228919" lon="-81.1817047">
      <ele>193.001</ele>
    </trkpt>
    <trkpt lat="39.4228149" lon="-81.1817581">
      <ele>192.785</ele>
    </trkpt>
    <trkpt lat="39.4228015" lon="-81.1817661">
      <ele>192.75</ele>
    </trkpt>
    <trkpt lat="39.4227882" lon="-81.181774">
      <ele>192.714</ele>
    </trkpt>
    <trkpt lat="39.4227738" lon="-81.1817801">
      <ele>192.679</ele>
    </trkpt>
    <trkpt lat="39.4227646" lon="-81.1817785">
      <ele>192.665</ele>
    </trkpt>
    <trkpt lat="39.4227574" lon="-81.1817675">
      <ele>192.668</ele>
    </trkpt>
    <trkpt lat="39.4227392" lon="-81.1817396">
      <ele>192.676</ele>
    </trkpt>
    <trkpt lat="39.4224363" lon="-81.1812281">
      <ele>194.268</ele>
    </trkpt>
    <trkpt lat="39.422192" lon="-81.1808253">
      <ele>195.092</ele>
    </trkpt>
    <trkpt lat="39.4220746" lon="-81.180607">
      <ele>195.146</ele>
    </trkpt>
    <trkpt lat="39.4219666" lon="-81.1803793">
      <ele>195.43</ele>
    </trkpt>
    <trkpt lat="39.4218502" lon="-81.180234">
      <ele>195.809</ele>
    </trkpt>
    <trkpt lat="39.4217384" lon="-81.1800793">
      <ele>196.15</ele>
    </trkpt>
    <trkpt lat="39.4216242" lon="-81.1798597">
      <ele>196.569</ele>
    </trkpt>
    <trkpt lat="39.4215276" lon="-81.1796334">
      <ele>197.092</ele>
    </trkpt>
    <trkpt lat="39.4214904" lon="-81.1793832">
      <ele>198.413</ele>
    </trkpt>
    <trkpt lat="39.4215246" lon="-81.1792424">
      <ele>199.218</ele>
    </trkpt>
    <trkpt lat="39.4215245" lon="-81.1792014">
      <ele>199.366</ele>
    </trkpt>
    <trkpt lat="39.4215079" lon="-81.1791232">
      <ele>199.606</ele>
    </trkpt>
    <trkpt lat="39.4214737" lon="-81.1791205">
      <ele>199.53</ele>
    </trkpt>
    <trkpt lat="39.4214364" lon="-81.1791084">
      <ele>199.484</ele>
    </trkpt>
    <trkpt lat="39.4214036" lon="-81.1790935">
      <ele>199.463</ele>
    </trkpt>
    <trkpt lat="39.4213525" lon="-81.1790618">
      <ele>199.476</ele>
    </trkpt>
    <trkpt lat="39.4212972" lon="-81.1789913">
      <ele>199.572</ele>
    </trkpt>
    <trkpt lat="39.4212483" lon="-81.1789015">
      <ele>199.674</ele>
    </trkpt>
    <trkpt lat="39.4212366" lon="-81.1788519">
      <ele>199.794</ele>
    </trkpt>
    <trkpt lat="39.4212281" lon="-81.1788057">
      <ele>199.906</ele>
    </trkpt>
    <trkpt lat="39.4212241" lon="-81.1787311">
      <ele>200.081</ele>
    </trkpt>
    <trkpt lat="39.4212336" lon="-81.1786552">
      <ele>200.238</ele>
    </trkpt>
    <trkpt lat="39.4212558" lon="-81.1785761">
      <ele>200.371</ele>
    </trkpt>
    <trkpt lat="39.4212931" lon="-81.1785058">
      <ele>200.463</ele>
    </trkpt>
    <trkpt lat="39.4213411" lon="-81.1784604">
      <ele>200.507</ele>
    </trkpt>
    <trkpt lat="39.4214341" lon="-81.1783708">
      <ele>200.685</ele>
    </trkpt>
    <trkpt lat="39.4216878" lon="-81.1781323">
      <ele>200.676</ele>
    </trkpt>
    <trkpt lat="39.4219739" lon="-81.1778595">
      <ele>200.648</ele>
    </trkpt>
    <trkpt lat="39.4221226" lon="-81.1777314">
      <ele>200.391</ele>
    </trkpt>
    <trkpt lat="39.4221766" lon="-81.1777233">
      <ele>200.341</ele>
    </trkpt>
    <trkpt lat="39.4222326" lon="-81.1777324">
      <ele>200.272</ele>
    </trkpt>
    <trkpt lat="39.4222998" lon="-81.1777482">
      <ele>200.198</ele>
    </trkpt>
    <trkpt lat="39.4223306" lon="-81.1777654">
      <ele>200.17</ele>
    </trkpt>
    <trkpt lat="39.4223858" lon="-81.1778064">
      <ele>200.185</ele>
    </trkpt>
    <trkpt lat="39.4224127" lon="-81.177836">
      <ele>200.209</ele>
    </trkpt>
    <trkpt lat="39.4224454" lon="-81.177869">
      <ele>200.219</ele>
    </trkpt>
    <trkpt lat="39.4224564" lon="-81.1778784">
      <ele>200.219</ele>
    </trkpt>
    <trkpt lat="39.4224681" lon="-81.1778976">
      <ele>200.212</ele>
    </trkpt>
    <trkpt lat="39.4224774" lon="-81.1779198">
      <ele>200.199</ele>
    </trkpt>
    <trkpt lat="39.4224892" lon="-81.177954">
      <ele>200.187</ele>
    </trkpt>
    <trkpt lat="39.4225057" lon="-81.1779958">
      <ele>200.172</ele>
    </trkpt>
    <trkpt lat="39.4225123" lon="-81.178053">
      <ele>200.151</ele>
    </trkpt>
    <trkpt lat="39.4225131" lon="-81.1780958">
      <ele>200.136</ele>
    </trkpt>
    <trkpt lat="39.4225125" lon="-81.1781315">
      <ele>200.123</ele>
    </trkpt>
    <trkpt lat="39.4225083" lon="-81.1781716">
      <ele>200.108</ele>
    </trkpt>
    <trkpt lat="39.4224944" lon="-81.1782166">
      <ele>200.096</ele>
    </trkpt>
    <trkpt lat="39.4224864" lon="-81.1782625">
      <ele>200.089</ele>
    </trkpt>
    <trkpt lat="39.4224546" lon="-81.1783272">
      <ele>200.084</ele>
    </trkpt>
    <trkpt lat="39.4223953" lon="-81.1783858">
      <ele>200.092</ele>
    </trkpt>
    <trkpt lat="39.4217986" lon="-81.1789426">
      <ele>200.099</ele>
    </trkpt>
    <trkpt lat="39.4217391" lon="-81.1790051">
      <ele>200.08</ele>
    </trkpt>
  </trkseg>
</trk>
</gpx>
