<?xml version="1.0" encoding="UTF-8"?>
<gpx version="1.1" creator="GPS Visualizer Sandbox https://www.gpsvisualizer.com/draw/" xmlns="http://www.topografix.com/GPX/1/1" xmlns:xsi="http://www.w3.org/2001/XMLSchema-instance" xsi:schemaLocation="http://www.topografix.com/GPX/1/1 http://www.topografix.com/GPX/1/1/gpx.xsd">
	<trk>
		<name>Evening Run</name>
		<desc>Length: 5.001 km (3.107 mi)</desc>
		<trkseg>
			<trkpt lat="39.686292" lon="-79.930216"></trkpt>
			<trkpt lat="39.686284" lon="-79.930185"></trkpt>
			<trkpt lat="39.686275" lon="-79.930154"></trkpt>
			<trkpt lat="39.686257" lon="-79.930079"></trkpt>
			<trkpt lat="39.686236" lon="-79.929999"></trkpt>
			<trkpt lat="39.686215" lon="-79.929915"></trkpt>
			<trkpt lat="39.6862" lon="-79.929835"></trkpt>
			<trkpt lat="39.686185" lon="-79.929758"></trkpt>
			<trkpt lat="39.686169" lon="-79.929683"></trkpt>
			<trkpt lat="39.686153" lon="-79.929609"></trkpt>
			<trkpt lat="39.686137" lon="-79.92953"></trkpt>
			<trkpt lat="39.686125" lon="-79.929456"></trkpt>
			<trkpt lat="39.686112" lon="-79.929388"></trkpt>
			<trkpt lat="39.686097" lon="-79.929314"></trkpt>
			<trkpt lat="39.686081" lon="-79.929239"></trkpt>
			<trkpt lat="39.686059" lon="-79.929176"></trkpt>
			<trkpt lat="39.686036" lon="-79.929111"></trkpt>
			<trkpt lat="39.686013" lon="-79.929046"></trkpt>
			<trkpt lat="39.685989" lon="-79.928975"></trkpt>
			<trkpt lat="39.685966" lon="-79.928912"></trkpt>
			<trkpt lat="39.685942" lon="-79.928849"></trkpt>
			<trkpt lat="39.685919" lon="-79.928775"></trkpt>
			<trkpt lat="39.68591" lon="-79.928709"></trkpt>
			<trkpt lat="39.685904" lon="-79.92864"></trkpt>
			<trkpt lat="39.685901" lon="-79.928564"></trkpt>
			<trkpt lat="39.685911" lon="-79.928503"></trkpt>
			<trkpt lat="39.685927" lon="-79.928436"></trkpt>
			<trkpt lat="39.685952" lon="-79.92837"></trkpt>
			<trkpt lat="39.685982" lon="-79.928318"></trkpt>
			<trkpt lat="39.686022" lon="-79.928263"></trkpt>
			<trkpt lat="39.686062" lon="-79.92822"></trkpt>
			<trkpt lat="39.686109" lon="-79.928189"></trkpt>
			<trkpt lat="39.686165" lon="-79.928161"></trkpt>
			<trkpt lat="39.686217" lon="-79.928152"></trkpt>
			<trkpt lat="39.686262" lon="-79.928143"></trkpt>
			<trkpt lat="39.68632" lon="-79.928132"></trkpt>
			<trkpt lat="39.686369" lon="-79.928132"></trkpt>
			<trkpt lat="39.686421" lon="-79.928122"></trkpt>
			<trkpt lat="39.686471" lon="-79.92811"></trkpt>
			<trkpt lat="39.686516" lon="-79.928091"></trkpt>
			<trkpt lat="39.68657" lon="-79.928081"></trkpt>
			<trkpt lat="39.686613" lon="-79.928095"></trkpt>
			<trkpt lat="39.686658" lon="-79.928118"></trkpt>
			<trkpt lat="39.686694" lon="-79.928156"></trkpt>
			<trkpt lat="39.686707" lon="-79.9282"></trkpt>
			<trkpt lat="39.6867" lon="-79.928264"></trkpt>
			<trkpt lat="39.686693" lon="-79.928333"></trkpt>
			<trkpt lat="39.686682" lon="-79.928398"></trkpt>
			<trkpt lat="39.6866888" lon="-79.9284653"></trkpt>
			<trkpt lat="39.6866904" lon="-79.928541"></trkpt>
			<trkpt lat="39.6866879" lon="-79.928598"></trkpt>
			<trkpt lat="39.686676" lon="-79.928672"></trkpt>
			<trkpt lat="39.686673" lon="-79.928732"></trkpt>
			<trkpt lat="39.686675" lon="-79.928803"></trkpt>
			<trkpt lat="39.686674" lon="-79.928872"></trkpt>
			<trkpt lat="39.686667" lon="-79.928933"></trkpt>
			<trkpt lat="39.686668" lon="-79.929004"></trkpt>
			<trkpt lat="39.686663" lon="-79.929065"></trkpt>
			<trkpt lat="39.686662" lon="-79.929126"></trkpt>
			<trkpt lat="39.686663" lon="-79.929191"></trkpt>
			<trkpt lat="39.686657" lon="-79.929249"></trkpt>
			<trkpt lat="39.686656" lon="-79.929315"></trkpt>
			<trkpt lat="39.686653" lon="-79.929378"></trkpt>
			<trkpt lat="39.686652" lon="-79.929437"></trkpt>
			<trkpt lat="39.686651" lon="-79.929512"></trkpt>
			<trkpt lat="39.686648" lon="-79.929572"></trkpt>
			<trkpt lat="39.686653" lon="-79.929631"></trkpt>
			<trkpt lat="39.686654" lon="-79.929694"></trkpt>
			<trkpt lat="39.686655" lon="-79.929753"></trkpt>
			<trkpt lat="39.686653" lon="-79.929827"></trkpt>
			<trkpt lat="39.68665" lon="-79.92989"></trkpt>
			<trkpt lat="39.686646" lon="-79.929949"></trkpt>
			<trkpt lat="39.686645" lon="-79.930023"></trkpt>
			<trkpt lat="39.686635" lon="-79.930082"></trkpt>
			<trkpt lat="39.686633" lon="-79.930148"></trkpt>
			<trkpt lat="39.686634" lon="-79.930208"></trkpt>
			<trkpt lat="39.686628" lon="-79.930265"></trkpt>
			<trkpt lat="39.686626" lon="-79.930337"></trkpt>
			<trkpt lat="39.686615" lon="-79.930393"></trkpt>
			<trkpt lat="39.68659" lon="-79.930452"></trkpt>
			<trkpt lat="39.686553" lon="-79.930485"></trkpt>
			<trkpt lat="39.686519" lon="-79.930507"></trkpt>
			<trkpt lat="39.686469" lon="-79.930508"></trkpt>
			<trkpt lat="39.686422" lon="-79.930495"></trkpt>
			<trkpt lat="39.686375" lon="-79.930485"></trkpt>
			<trkpt lat="39.686325" lon="-79.93047"></trkpt>
			<trkpt lat="39.686277" lon="-79.930447"></trkpt>
			<trkpt lat="39.686226" lon="-79.930411"></trkpt>
			<trkpt lat="39.686185" lon="-79.930378"></trkpt>
			<trkpt lat="39.686144" lon="-79.930348"></trkpt>
			<trkpt lat="39.686105" lon="-79.930312"></trkpt>
			<trkpt lat="39.686066" lon="-79.93028"></trkpt>
			<trkpt lat="39.686025" lon="-79.930238"></trkpt>
			<trkpt lat="39.685988" lon="-79.930203"></trkpt>
			<trkpt lat="39.68594" lon="-79.930166"></trkpt>
			<trkpt lat="39.685903" lon="-79.930131"></trkpt>
			<trkpt lat="39.685858" lon="-79.9301"></trkpt>
			<trkpt lat="39.685812" lon="-79.930069"></trkpt>
			<trkpt lat="39.68576" lon="-79.930045"></trkpt>
			<trkpt lat="39.685714" lon="-79.930022"></trkpt>
			<trkpt lat="39.685659" lon="-79.930015"></trkpt>
			<trkpt lat="39.68561" lon="-79.929997"></trkpt>
			<trkpt lat="39.685564" lon="-79.929983"></trkpt>
			<trkpt lat="39.685506" lon="-79.929974"></trkpt>
			<trkpt lat="39.68546" lon="-79.929964"></trkpt>
			<trkpt lat="39.685407" lon="-79.929952"></trkpt>
			<trkpt lat="39.685361" lon="-79.929925"></trkpt>
			<trkpt lat="39.685326" lon="-79.929886"></trkpt>
			<trkpt lat="39.685292" lon="-79.929846"></trkpt>
			<trkpt lat="39.685277" lon="-79.929787"></trkpt>
			<trkpt lat="39.68526" lon="-79.929737"></trkpt>
			<trkpt lat="39.685251" lon="-79.929667"></trkpt>
			<trkpt lat="39.685234" lon="-79.92962"></trkpt>
			<trkpt lat="39.68521" lon="-79.929584"></trkpt>
			<trkpt lat="39.68518" lon="-79.929589"></trkpt>
			<trkpt lat="39.685143" lon="-79.929595"></trkpt>
			<trkpt lat="39.685106" lon="-79.929622"></trkpt>
			<trkpt lat="39.685067" lon="-79.92966"></trkpt>
			<trkpt lat="39.68503" lon="-79.929685"></trkpt>
			<trkpt lat="39.684981" lon="-79.929699"></trkpt>
			<trkpt lat="39.684959" lon="-79.929681"></trkpt>
			<trkpt lat="39.6849361" lon="-79.9296743"></trkpt>
			<trkpt lat="39.6849225" lon="-79.9296608"></trkpt>
			<trkpt lat="39.6849189" lon="-79.929637"></trkpt>
			<trkpt lat="39.6849319" lon="-79.9296199"></trkpt>
			<trkpt lat="39.6849429" lon="-79.9295933"></trkpt>
			<trkpt lat="39.6849583" lon="-79.9295399"></trkpt>
			<trkpt lat="39.6849915" lon="-79.9294742"></trkpt>
			<trkpt lat="39.6850177" lon="-79.9294115"></trkpt>
			<trkpt lat="39.685032" lon="-79.9293669"></trkpt>
			<trkpt lat="39.6850495" lon="-79.9293139"></trkpt>
			<trkpt lat="39.6850696" lon="-79.9292539"></trkpt>
			<trkpt lat="39.6850835" lon="-79.9291969"></trkpt>
			<trkpt lat="39.6851028" lon="-79.9291342"></trkpt>
			<trkpt lat="39.6851329" lon="-79.9290648"></trkpt>
			<trkpt lat="39.6851706" lon="-79.9290084"></trkpt>
			<trkpt lat="39.6851955" lon="-79.9289901"></trkpt>
			<trkpt lat="39.685225" lon="-79.9289885"></trkpt>
			<trkpt lat="39.685247" lon="-79.9289924"></trkpt>
			<trkpt lat="39.685268" lon="-79.928999"></trkpt>
			<trkpt lat="39.6853054" lon="-79.9290023"></trkpt>
			<trkpt lat="39.685357" lon="-79.929012"></trkpt>
			<trkpt lat="39.685397" lon="-79.929028"></trkpt>
			<trkpt lat="39.685438" lon="-79.929047"></trkpt>
			<trkpt lat="39.685483" lon="-79.929064"></trkpt>
			<trkpt lat="39.6855185" lon="-79.9290682"></trkpt>
			<trkpt lat="39.685561" lon="-79.92909"></trkpt>
			<trkpt lat="39.685606" lon="-79.929095"></trkpt>
			<trkpt lat="39.685642" lon="-79.929104"></trkpt>
			<trkpt lat="39.685691" lon="-79.929104"></trkpt>
			<trkpt lat="39.685733" lon="-79.929104"></trkpt>
			<trkpt lat="39.6857565" lon="-79.9291056"></trkpt>
			<trkpt lat="39.6857867" lon="-79.9290991"></trkpt>
			<trkpt lat="39.685817" lon="-79.929079"></trkpt>
			<trkpt lat="39.685846" lon="-79.929041"></trkpt>
			<trkpt lat="39.685868" lon="-79.928993"></trkpt>
			<trkpt lat="39.685881" lon="-79.928943"></trkpt>
			<trkpt lat="39.685891" lon="-79.928879"></trkpt>
			<trkpt lat="39.685899" lon="-79.928829"></trkpt>
			<trkpt lat="39.685903" lon="-79.928761"></trkpt>
			<trkpt lat="39.685908" lon="-79.928707"></trkpt>
			<trkpt lat="39.685915" lon="-79.928643"></trkpt>
			<trkpt lat="39.685924" lon="-79.928587"></trkpt>
			<trkpt lat="39.685929" lon="-79.928527"></trkpt>
			<trkpt lat="39.685942" lon="-79.928473"></trkpt>
			<trkpt lat="39.685958" lon="-79.928408"></trkpt>
			<trkpt lat="39.685976" lon="-79.928353"></trkpt>
			<trkpt lat="39.686003" lon="-79.928307"></trkpt>
			<trkpt lat="39.686042" lon="-79.928257"></trkpt>
			<trkpt lat="39.686075" lon="-79.928227"></trkpt>
			<trkpt lat="39.686116" lon="-79.928198"></trkpt>
			<trkpt lat="39.686159" lon="-79.92818"></trkpt>
			<trkpt lat="39.686201" lon="-79.92816"></trkpt>
			<trkpt lat="39.686249" lon="-79.928147"></trkpt>
			<trkpt lat="39.686292" lon="-79.928141"></trkpt>
			<trkpt lat="39.686345" lon="-79.928131"></trkpt>
			<trkpt lat="39.686386" lon="-79.928125"></trkpt>
			<trkpt lat="39.686433" lon="-79.928104"></trkpt>
			<trkpt lat="39.686476" lon="-79.928085"></trkpt>
			<trkpt lat="39.686519" lon="-79.928061"></trkpt>
			<trkpt lat="39.686563" lon="-79.928031"></trkpt>
			<trkpt lat="39.686595" lon="-79.927999"></trkpt>
			<trkpt lat="39.686636" lon="-79.927951"></trkpt>
			<trkpt lat="39.68667" lon="-79.927913"></trkpt>
			<trkpt lat="39.686692" lon="-79.927855"></trkpt>
			<trkpt lat="39.686703" lon="-79.9278"></trkpt>
			<trkpt lat="39.6867" lon="-79.927736"></trkpt>
			<trkpt lat="39.686693" lon="-79.927672"></trkpt>
			<trkpt lat="39.686678" lon="-79.927607"></trkpt>
			<trkpt lat="39.686663" lon="-79.927537"></trkpt>
			<trkpt lat="39.686651" lon="-79.927474"></trkpt>
			<trkpt lat="39.686629" lon="-79.927396"></trkpt>
			<trkpt lat="39.686609" lon="-79.927338"></trkpt>
			<trkpt lat="39.686564" lon="-79.927284"></trkpt>
			<trkpt lat="39.686523" lon="-79.927231"></trkpt>
			<trkpt lat="39.6864774" lon="-79.9271934"></trkpt>
			<trkpt lat="39.6864373" lon="-79.9271394"></trkpt>
			<trkpt lat="39.686402" lon="-79.9270914"></trkpt>
			<trkpt lat="39.6863743" lon="-79.9270203"></trkpt>
			<trkpt lat="39.6863724" lon="-79.926958"></trkpt>
			<trkpt lat="39.6863982" lon="-79.9269022"></trkpt>
			<trkpt lat="39.6864357" lon="-79.9268439"></trkpt>
			<trkpt lat="39.6864771" lon="-79.9267875"></trkpt>
			<trkpt lat="39.6865147" lon="-79.9267378"></trkpt>
			<trkpt lat="39.6865517" lon="-79.9266898"></trkpt>
			<trkpt lat="39.6865862" lon="-79.9266498"></trkpt>
			<trkpt lat="39.6866125" lon="-79.9265974"></trkpt>
			<trkpt lat="39.6866373" lon="-79.9265534"></trkpt>
			<trkpt lat="39.6866546" lon="-79.9265115"></trkpt>
			<trkpt lat="39.6866848" lon="-79.9264514"></trkpt>
			<trkpt lat="39.6867022" lon="-79.9264098"></trkpt>
			<trkpt lat="39.686736" lon="-79.9263481"></trkpt>
			<trkpt lat="39.6867508" lon="-79.9263078"></trkpt>
			<trkpt lat="39.6867666" lon="-79.9262806"></trkpt>
			<trkpt lat="39.6867868" lon="-79.9262383"></trkpt>
			<trkpt lat="39.6868119" lon="-79.9261746"></trkpt>
			<trkpt lat="39.6868323" lon="-79.9261246"></trkpt>
			<trkpt lat="39.6868518" lon="-79.9260693"></trkpt>
			<trkpt lat="39.6868733" lon="-79.9260156"></trkpt>
			<trkpt lat="39.686897" lon="-79.9259583"></trkpt>
			<trkpt lat="39.6869169" lon="-79.9258946"></trkpt>
			<trkpt lat="39.6869528" lon="-79.9257986"></trkpt>
			<trkpt lat="39.6869792" lon="-79.92574"></trkpt>
			<trkpt lat="39.6869946" lon="-79.9256997"></trkpt>
			<trkpt lat="39.6870151" lon="-79.9256515"></trkpt>
			<trkpt lat="39.6870387" lon="-79.9255931"></trkpt>
			<trkpt lat="39.6870638" lon="-79.9255331"></trkpt>
			<trkpt lat="39.6871056" lon="-79.925456"></trkpt>
			<trkpt lat="39.6871419" lon="-79.9253629"></trkpt>
			<trkpt lat="39.687152" lon="-79.9253382"></trkpt>
			<trkpt lat="39.6871746" lon="-79.9252708"></trkpt>
			<trkpt lat="39.6871859" lon="-79.9252236"></trkpt>
			<trkpt lat="39.6872086" lon="-79.9251636"></trkpt>
			<trkpt lat="39.6872133" lon="-79.9250872"></trkpt>
			<trkpt lat="39.6872395" lon="-79.9250208"></trkpt>
			<trkpt lat="39.6872565" lon="-79.9249769"></trkpt>
			<trkpt lat="39.6872836" lon="-79.9248957"></trkpt>
			<trkpt lat="39.6873149" lon="-79.9248431"></trkpt>
			<trkpt lat="39.6873346" lon="-79.9247754"></trkpt>
			<trkpt lat="39.6873493" lon="-79.9247257"></trkpt>
			<trkpt lat="39.6873686" lon="-79.9246888"></trkpt>
			<trkpt lat="39.687387" lon="-79.9246428"></trkpt>
			<trkpt lat="39.6874014" lon="-79.92461"></trkpt>
			<trkpt lat="39.6874144" lon="-79.9245537"></trkpt>
			<trkpt lat="39.6874216" lon="-79.9244977"></trkpt>
			<trkpt lat="39.6874269" lon="-79.92444"></trkpt>
			<trkpt lat="39.6874179" lon="-79.924393"></trkpt>
			<trkpt lat="39.6873979" lon="-79.9243227"></trkpt>
			<trkpt lat="39.6873793" lon="-79.9242734"></trkpt>
			<trkpt lat="39.687378" lon="-79.924217"></trkpt>
			<trkpt lat="39.68736" lon="-79.924145"></trkpt>
			<trkpt lat="39.6873492" lon="-79.924096"></trkpt>
			<trkpt lat="39.6873305" lon="-79.9240253"></trkpt>
			<trkpt lat="39.6873303" lon="-79.9239861"></trkpt>
			<trkpt lat="39.6873321" lon="-79.9239502"></trkpt>
			<trkpt lat="39.6873536" lon="-79.923911"></trkpt>
			<trkpt lat="39.6873804" lon="-79.9238846"></trkpt>
			<trkpt lat="39.6874127" lon="-79.923879"></trkpt>
			<trkpt lat="39.6874419" lon="-79.9238827"></trkpt>
			<trkpt lat="39.6874713" lon="-79.9238957"></trkpt>
			<trkpt lat="39.687496" lon="-79.9239329"></trkpt>
			<trkpt lat="39.6875131" lon="-79.9239611"></trkpt>
			<trkpt lat="39.687524" lon="-79.923996"></trkpt>
			<trkpt lat="39.68754" lon="-79.924036"></trkpt>
			<trkpt lat="39.687562" lon="-79.924098"></trkpt>
			<trkpt lat="39.687568" lon="-79.924166"></trkpt>
			<trkpt lat="39.687579" lon="-79.92424"></trkpt>
			<trkpt lat="39.687584" lon="-79.924315"></trkpt>
			<trkpt lat="39.687593" lon="-79.924376"></trkpt>
			<trkpt lat="39.687601" lon="-79.924447"></trkpt>
			<trkpt lat="39.687597" lon="-79.924512"></trkpt>
			<trkpt lat="39.687599" lon="-79.924586"></trkpt>
			<trkpt lat="39.687599" lon="-79.924647"></trkpt>
			<trkpt lat="39.687602" lon="-79.924711"></trkpt>
			<trkpt lat="39.687602" lon="-79.924776"></trkpt>
			<trkpt lat="39.687597" lon="-79.924829"></trkpt>
			<trkpt lat="39.687597" lon="-79.924897"></trkpt>
			<trkpt lat="39.687599" lon="-79.924955"></trkpt>
			<trkpt lat="39.687601" lon="-79.925018"></trkpt>
			<trkpt lat="39.687596" lon="-79.925074"></trkpt>
			<trkpt lat="39.687598" lon="-79.925129"></trkpt>
			<trkpt lat="39.687602" lon="-79.925194"></trkpt>
			<trkpt lat="39.687594" lon="-79.925241"></trkpt>
			<trkpt lat="39.687596" lon="-79.925306"></trkpt>
			<trkpt lat="39.687595" lon="-79.925358"></trkpt>
			<trkpt lat="39.687595" lon="-79.925414"></trkpt>
			<trkpt lat="39.687598" lon="-79.925476"></trkpt>
			<trkpt lat="39.687598" lon="-79.925519"></trkpt>
			<trkpt lat="39.687603" lon="-79.925584"></trkpt>
			<trkpt lat="39.6876" lon="-79.925634"></trkpt>
			<trkpt lat="39.687599" lon="-79.925687"></trkpt>
			<trkpt lat="39.687596" lon="-79.925747"></trkpt>
			<trkpt lat="39.687597" lon="-79.92579"></trkpt>
			<trkpt lat="39.6875909" lon="-79.9258336"></trkpt>
			<trkpt lat="39.6875939" lon="-79.9258537"></trkpt>
			<trkpt lat="39.687602" lon="-79.9258699"></trkpt>
			<trkpt lat="39.6876239" lon="-79.9258934"></trkpt>
			<trkpt lat="39.687656" lon="-79.925922"></trkpt>
			<trkpt lat="39.6877" lon="-79.925925"></trkpt>
			<trkpt lat="39.687749" lon="-79.925925"></trkpt>
			<trkpt lat="39.6877711" lon="-79.9259072"></trkpt>
			<trkpt lat="39.6877876" lon="-79.9258874"></trkpt>
			<trkpt lat="39.6877951" lon="-79.9258752"></trkpt>
			<trkpt lat="39.6878041" lon="-79.9258637"></trkpt>
			<trkpt lat="39.687816" lon="-79.92583"></trkpt>
			<trkpt lat="39.687826" lon="-79.925757"></trkpt>
			<trkpt lat="39.687826" lon="-79.925697"></trkpt>
			<trkpt lat="39.687825" lon="-79.925624"></trkpt>
			<trkpt lat="39.687827" lon="-79.925566"></trkpt>
			<trkpt lat="39.687824" lon="-79.925492"></trkpt>
			<trkpt lat="39.687824" lon="-79.925432"></trkpt>
			<trkpt lat="39.687815" lon="-79.925371"></trkpt>
			<trkpt lat="39.687817" lon="-79.925308"></trkpt>
			<trkpt lat="39.687818" lon="-79.925253"></trkpt>
			<trkpt lat="39.687813" lon="-79.925182"></trkpt>
			<trkpt lat="39.687815" lon="-79.925125"></trkpt>
			<trkpt lat="39.687816" lon="-79.925057"></trkpt>
			<trkpt lat="39.687824" lon="-79.924997"></trkpt>
			<trkpt lat="39.68783" lon="-79.924938"></trkpt>
			<trkpt lat="39.687836" lon="-79.924871"></trkpt>
			<trkpt lat="39.687848" lon="-79.924813"></trkpt>
			<trkpt lat="39.687861" lon="-79.924744"></trkpt>
			<trkpt lat="39.687875" lon="-79.924686"></trkpt>
			<trkpt lat="39.687884" lon="-79.924616"></trkpt>
			<trkpt lat="39.687898" lon="-79.92455"></trkpt>
			<trkpt lat="39.687904" lon="-79.924496"></trkpt>
			<trkpt lat="39.687905" lon="-79.924423"></trkpt>
			<trkpt lat="39.687905" lon="-79.924364"></trkpt>
			<trkpt lat="39.687891" lon="-79.924307"></trkpt>
			<trkpt lat="39.687881" lon="-79.924243"></trkpt>
			<trkpt lat="39.68787" lon="-79.924187"></trkpt>
			<trkpt lat="39.687858" lon="-79.924121"></trkpt>
			<trkpt lat="39.687851" lon="-79.924069"></trkpt>
			<trkpt lat="39.687841" lon="-79.924012"></trkpt>
			<trkpt lat="39.687835" lon="-79.923956"></trkpt>
			<trkpt lat="39.687823" lon="-79.923904"></trkpt>
			<trkpt lat="39.687812" lon="-79.923839"></trkpt>
			<trkpt lat="39.6878074" lon="-79.9237893"></trkpt>
			<trkpt lat="39.687799" lon="-79.923734"></trkpt>
			<trkpt lat="39.6878003" lon="-79.9237138"></trkpt>
			<trkpt lat="39.6878042" lon="-79.9236989"></trkpt>
			<trkpt lat="39.6878171" lon="-79.9236813"></trkpt>
			<trkpt lat="39.6878358" lon="-79.9236662"></trkpt>
			<trkpt lat="39.687862" lon="-79.9236565"></trkpt>
			<trkpt lat="39.6878841" lon="-79.9236576"></trkpt>
			<trkpt lat="39.6879164" lon="-79.9236616"></trkpt>
			<trkpt lat="39.6879325" lon="-79.9236662"></trkpt>
			<trkpt lat="39.6879467" lon="-79.9236776"></trkpt>
			<trkpt lat="39.6879625" lon="-79.9236929"></trkpt>
			<trkpt lat="39.6879809" lon="-79.9237193"></trkpt>
			<trkpt lat="39.6879971" lon="-79.9237463"></trkpt>
			<trkpt lat="39.688023" lon="-79.923788"></trkpt>
			<trkpt lat="39.688057" lon="-79.923844"></trkpt>
			<trkpt lat="39.688068" lon="-79.923888"></trkpt>
			<trkpt lat="39.688088" lon="-79.923954"></trkpt>
			<trkpt lat="39.688092" lon="-79.924004"></trkpt>
			<trkpt lat="39.688108" lon="-79.924071"></trkpt>
			<trkpt lat="39.688112" lon="-79.924128"></trkpt>
			<trkpt lat="39.688121" lon="-79.924189"></trkpt>
			<trkpt lat="39.688118" lon="-79.924248"></trkpt>
			<trkpt lat="39.688117" lon="-79.924304"></trkpt>
			<trkpt lat="39.688112" lon="-79.924368"></trkpt>
			<trkpt lat="39.688108" lon="-79.924421"></trkpt>
			<trkpt lat="39.688105" lon="-79.924487"></trkpt>
			<trkpt lat="39.688099" lon="-79.924537"></trkpt>
			<trkpt lat="39.688099" lon="-79.9246"></trkpt>
			<trkpt lat="39.688095" lon="-79.924657"></trkpt>
			<trkpt lat="39.688096" lon="-79.924719"></trkpt>
			<trkpt lat="39.688096" lon="-79.924779"></trkpt>
			<trkpt lat="39.688095" lon="-79.92483"></trkpt>
			<trkpt lat="39.688104" lon="-79.924892"></trkpt>
			<trkpt lat="39.688105" lon="-79.924939"></trkpt>
			<trkpt lat="39.688119" lon="-79.925006"></trkpt>
			<trkpt lat="39.688119" lon="-79.925062"></trkpt>
			<trkpt lat="39.688128" lon="-79.925125"></trkpt>
			<trkpt lat="39.688134" lon="-79.925179"></trkpt>
			<trkpt lat="39.688143" lon="-79.92523"></trkpt>
			<trkpt lat="39.688153" lon="-79.925286"></trkpt>
			<trkpt lat="39.688156" lon="-79.92533"></trkpt>
			<trkpt lat="39.688167" lon="-79.925392"></trkpt>
			<trkpt lat="39.688168" lon="-79.925436"></trkpt>
			<trkpt lat="39.688175" lon="-79.925498"></trkpt>
			<trkpt lat="39.688177" lon="-79.925548"></trkpt>
			<trkpt lat="39.688188" lon="-79.925606"></trkpt>
			<trkpt lat="39.688193" lon="-79.925658"></trkpt>
			<trkpt lat="39.688207" lon="-79.925709"></trkpt>
			<trkpt lat="39.68822" lon="-79.925764"></trkpt>
			<trkpt lat="39.688235" lon="-79.92581"></trkpt>
			<trkpt lat="39.688258" lon="-79.925864"></trkpt>
			<trkpt lat="39.68827" lon="-79.925906"></trkpt>
			<trkpt lat="39.688295" lon="-79.925962"></trkpt>
			<trkpt lat="39.688309" lon="-79.926002"></trkpt>
			<trkpt lat="39.688334" lon="-79.926055"></trkpt>
			<trkpt lat="39.688351" lon="-79.926105"></trkpt>
			<trkpt lat="39.688374" lon="-79.92615"></trkpt>
			<trkpt lat="39.688394" lon="-79.926204"></trkpt>
			<trkpt lat="39.688412" lon="-79.926249"></trkpt>
			<trkpt lat="39.688438" lon="-79.926305"></trkpt>
			<trkpt lat="39.688453" lon="-79.926352"></trkpt>
			<trkpt lat="39.688471" lon="-79.926408"></trkpt>
			<trkpt lat="39.688485" lon="-79.926455"></trkpt>
			<trkpt lat="39.688509" lon="-79.926501"></trkpt>
			<trkpt lat="39.688534" lon="-79.926548"></trkpt>
			<trkpt lat="39.68856" lon="-79.926585"></trkpt>
			<trkpt lat="39.688595" lon="-79.926636"></trkpt>
			<trkpt lat="39.688617" lon="-79.926669"></trkpt>
			<trkpt lat="39.688651" lon="-79.926715"></trkpt>
			<trkpt lat="39.688673" lon="-79.926758"></trkpt>
			<trkpt lat="39.688707" lon="-79.926795"></trkpt>
			<trkpt lat="39.688732" lon="-79.926835"></trkpt>
			<trkpt lat="39.688763" lon="-79.926869"></trkpt>
			<trkpt lat="39.688792" lon="-79.926909"></trkpt>
			<trkpt lat="39.68882" lon="-79.92694"></trkpt>
			<trkpt lat="39.688851" lon="-79.926984"></trkpt>
			<trkpt lat="39.688867" lon="-79.927016"></trkpt>
			<trkpt lat="39.688895" lon="-79.927071"></trkpt>
			<trkpt lat="39.688915" lon="-79.92712"></trkpt>
			<trkpt lat="39.688943" lon="-79.927174"></trkpt>
			<trkpt lat="39.68896" lon="-79.927221"></trkpt>
			<trkpt lat="39.688983" lon="-79.927272"></trkpt>
			<trkpt lat="39.689004" lon="-79.927321"></trkpt>
			<trkpt lat="39.6890198" lon="-79.9273663"></trkpt>
			<trkpt lat="39.689035" lon="-79.9274267"></trkpt>
			<trkpt lat="39.6890482" lon="-79.9274553"></trkpt>
			<trkpt lat="39.6890646" lon="-79.9274859"></trkpt>
			<trkpt lat="39.6891149" lon="-79.9275255"></trkpt>
			<trkpt lat="39.689147" lon="-79.927537"></trkpt>
			<trkpt lat="39.6891943" lon="-79.9275469"></trkpt>
			<trkpt lat="39.6892369" lon="-79.9275468"></trkpt>
			<trkpt lat="39.6892782" lon="-79.9275468"></trkpt>
			<trkpt lat="39.6893242" lon="-79.9275484"></trkpt>
			<trkpt lat="39.6893704" lon="-79.9275491"></trkpt>
			<trkpt lat="39.6894182" lon="-79.9275548"></trkpt>
			<trkpt lat="39.6894596" lon="-79.9275732"></trkpt>
			<trkpt lat="39.6895101" lon="-79.9275893"></trkpt>
			<trkpt lat="39.6895507" lon="-79.9276036"></trkpt>
			<trkpt lat="39.6895967" lon="-79.9276199"></trkpt>
			<trkpt lat="39.6896397" lon="-79.9276443"></trkpt>
			<trkpt lat="39.689671" lon="-79.927671"></trkpt>
			<trkpt lat="39.689716" lon="-79.927692"></trkpt>
			<trkpt lat="39.689747" lon="-79.927717"></trkpt>
			<trkpt lat="39.6897992" lon="-79.9277453"></trkpt>
			<trkpt lat="39.6898332" lon="-79.9277786"></trkpt>
			<trkpt lat="39.6898679" lon="-79.9278042"></trkpt>
			<trkpt lat="39.6898945" lon="-79.9278281"></trkpt>
			<trkpt lat="39.6899099" lon="-79.9278381"></trkpt>
			<trkpt lat="39.6899248" lon="-79.927846"></trkpt>
			<trkpt lat="39.6899395" lon="-79.9278492"></trkpt>
			<trkpt lat="39.6899542" lon="-79.927847"></trkpt>
			<trkpt lat="39.6899625" lon="-79.9278446"></trkpt>
			<trkpt lat="39.690012" lon="-79.927825"></trkpt>
			<trkpt lat="39.690055" lon="-79.927796"></trkpt>
			<trkpt lat="39.690099" lon="-79.927759"></trkpt>
			<trkpt lat="39.690139" lon="-79.927728"></trkpt>
			<trkpt lat="39.690182" lon="-79.927684"></trkpt>
			<trkpt lat="39.690223" lon="-79.927642"></trkpt>
			<trkpt lat="39.690256" lon="-79.927601"></trkpt>
			<trkpt lat="39.690296" lon="-79.927547"></trkpt>
			<trkpt lat="39.690329" lon="-79.927503"></trkpt>
			<trkpt lat="39.690357" lon="-79.92745"></trkpt>
			<trkpt lat="39.690389" lon="-79.927397"></trkpt>
			<trkpt lat="39.690421" lon="-79.927344"></trkpt>
			<trkpt lat="39.690449" lon="-79.927284"></trkpt>
			<trkpt lat="39.690471" lon="-79.927239"></trkpt>
			<trkpt lat="39.690487" lon="-79.927192"></trkpt>
			<trkpt lat="39.690503" lon="-79.927127"></trkpt>
			<trkpt lat="39.690513" lon="-79.927076"></trkpt>
			<trkpt lat="39.690525" lon="-79.927011"></trkpt>
			<trkpt lat="39.690538" lon="-79.926962"></trkpt>
			<trkpt lat="39.69055" lon="-79.926908"></trkpt>
			<trkpt lat="39.690569" lon="-79.926849"></trkpt>
			<trkpt lat="39.690591" lon="-79.926802"></trkpt>
			<trkpt lat="39.690617" lon="-79.926747"></trkpt>
			<trkpt lat="39.69064" lon="-79.926709"></trkpt>
			<trkpt lat="39.690658" lon="-79.926659"></trkpt>
			<trkpt lat="39.690674" lon="-79.926609"></trkpt>
			<trkpt lat="39.690689" lon="-79.926559"></trkpt>
			<trkpt lat="39.690708" lon="-79.926505"></trkpt>
			<trkpt lat="39.690721" lon="-79.926451"></trkpt>
			<trkpt lat="39.690731" lon="-79.926384"></trkpt>
			<trkpt lat="39.690748" lon="-79.926338"></trkpt>
			<trkpt lat="39.6907497" lon="-79.926285"></trkpt>
			<trkpt lat="39.6907535" lon="-79.9262316"></trkpt>
			<trkpt lat="39.6907729" lon="-79.926179"></trkpt>
			<trkpt lat="39.6907927" lon="-79.9261112"></trkpt>
			<trkpt lat="39.6908185" lon="-79.9260679"></trkpt>
			<trkpt lat="39.6908388" lon="-79.9260411"></trkpt>
			<trkpt lat="39.6908658" lon="-79.9260124"></trkpt>
			<trkpt lat="39.6908844" lon="-79.9259935"></trkpt>
			<trkpt lat="39.6909117" lon="-79.9259893"></trkpt>
			<trkpt lat="39.690932" lon="-79.9259843"></trkpt>
			<trkpt lat="39.6909502" lon="-79.9259953"></trkpt>
			<trkpt lat="39.6909692" lon="-79.926002"></trkpt>
			<trkpt lat="39.6909841" lon="-79.9260195"></trkpt>
			<trkpt lat="39.6910192" lon="-79.9260515"></trkpt>
			<trkpt lat="39.6910556" lon="-79.9260916"></trkpt>
			<trkpt lat="39.691101" lon="-79.926124"></trkpt>
			<trkpt lat="39.691152" lon="-79.926159"></trkpt>
			<trkpt lat="39.691194" lon="-79.926197"></trkpt>
			<trkpt lat="39.691229" lon="-79.92622"></trkpt>
			<trkpt lat="39.691272" lon="-79.926254"></trkpt>
			<trkpt lat="39.691307" lon="-79.92628"></trkpt>
			<trkpt lat="39.691354" lon="-79.92631"></trkpt>
			<trkpt lat="39.691401" lon="-79.926339"></trkpt>
			<trkpt lat="39.69144" lon="-79.926375"></trkpt>
			<trkpt lat="39.691479" lon="-79.926415"></trkpt>
			<trkpt lat="39.691512" lon="-79.926451"></trkpt>
			<trkpt lat="39.691542" lon="-79.926488"></trkpt>
			<trkpt lat="39.691572" lon="-79.926529"></trkpt>
			<trkpt lat="39.6916" lon="-79.926566"></trkpt>
			<trkpt lat="39.691632" lon="-79.926609"></trkpt>
			<trkpt lat="39.691656" lon="-79.926646"></trkpt>
			<trkpt lat="39.691698" lon="-79.926688"></trkpt>
			<trkpt lat="39.691724" lon="-79.926723"></trkpt>
			<trkpt lat="39.691764" lon="-79.926758"></trkpt>
			<trkpt lat="39.691796" lon="-79.926794"></trkpt>
			<trkpt lat="39.691827" lon="-79.926838"></trkpt>
			<trkpt lat="39.691842" lon="-79.926888"></trkpt>
			<trkpt lat="39.691846" lon="-79.926949"></trkpt>
			<trkpt lat="39.691838" lon="-79.926997"></trkpt>
			<trkpt lat="39.691817" lon="-79.927037"></trkpt>
			<trkpt lat="39.691784" lon="-79.927065"></trkpt>
			<trkpt lat="39.691749" lon="-79.927085"></trkpt>
			<trkpt lat="39.691704" lon="-79.927094"></trkpt>
			<trkpt lat="39.691669" lon="-79.927103"></trkpt>
			<trkpt lat="39.691622" lon="-79.927113"></trkpt>
			<trkpt lat="39.691585" lon="-79.927112"></trkpt>
			<trkpt lat="39.691538" lon="-79.927124"></trkpt>
			<trkpt lat="39.691493" lon="-79.927121"></trkpt>
			<trkpt lat="39.691448" lon="-79.927131"></trkpt>
			<trkpt lat="39.691398" lon="-79.927139"></trkpt>
			<trkpt lat="39.691357" lon="-79.927154"></trkpt>
			<trkpt lat="39.691314" lon="-79.927171"></trkpt>
			<trkpt lat="39.69127" lon="-79.927179"></trkpt>
			<trkpt lat="39.691221" lon="-79.927196"></trkpt>
			<trkpt lat="39.691184" lon="-79.927208"></trkpt>
			<trkpt lat="39.691144" lon="-79.927234"></trkpt>
			<trkpt lat="39.691103" lon="-79.927262"></trkpt>
			<trkpt lat="39.691066" lon="-79.927292"></trkpt>
			<trkpt lat="39.691024" lon="-79.927326"></trkpt>
			<trkpt lat="39.690989" lon="-79.927356"></trkpt>
			<trkpt lat="39.690945" lon="-79.927395"></trkpt>
			<trkpt lat="39.690908" lon="-79.927423"></trkpt>
			<trkpt lat="39.690865" lon="-79.927457"></trkpt>
			<trkpt lat="39.690829" lon="-79.927493"></trkpt>
			<trkpt lat="39.690792" lon="-79.927527"></trkpt>
			<trkpt lat="39.690749" lon="-79.927562"></trkpt>
			<trkpt lat="39.690713" lon="-79.927584"></trkpt>
			<trkpt lat="39.690669" lon="-79.927616"></trkpt>
			<trkpt lat="39.690633" lon="-79.927642"></trkpt>
			<trkpt lat="39.690593" lon="-79.927675"></trkpt>
			<trkpt lat="39.690558" lon="-79.927705"></trkpt>
			<trkpt lat="39.690527" lon="-79.927741"></trkpt>
			<trkpt lat="39.690488" lon="-79.927782"></trkpt>
			<trkpt lat="39.690454" lon="-79.927813"></trkpt>
			<trkpt lat="39.690412" lon="-79.927852"></trkpt>
			<trkpt lat="39.690371" lon="-79.927885"></trkpt>
			<trkpt lat="39.690335" lon="-79.927921"></trkpt>
			<trkpt lat="39.690297" lon="-79.92796"></trkpt>
			<trkpt lat="39.690266" lon="-79.927993"></trkpt>
			<trkpt lat="39.690234" lon="-79.928037"></trkpt>
			<trkpt lat="39.690196" lon="-79.928075"></trkpt>
			<trkpt lat="39.690177" lon="-79.928118"></trkpt>
			<trkpt lat="39.690168" lon="-79.928177"></trkpt>
			<trkpt lat="39.690161" lon="-79.928223"></trkpt>
			<trkpt lat="39.690169" lon="-79.928288"></trkpt>
			<trkpt lat="39.690178" lon="-79.928344"></trkpt>
			<trkpt lat="39.690192" lon="-79.928402"></trkpt>
			<trkpt lat="39.690198" lon="-79.928464"></trkpt>
			<trkpt lat="39.6902" lon="-79.928523"></trkpt>
			<trkpt lat="39.690202" lon="-79.928589"></trkpt>
			<trkpt lat="39.690198" lon="-79.928638"></trkpt>
			<trkpt lat="39.690194" lon="-79.928704"></trkpt>
			<trkpt lat="39.690185" lon="-79.928757"></trkpt>
			<trkpt lat="39.690179" lon="-79.928822"></trkpt>
			<trkpt lat="39.690165" lon="-79.928882"></trkpt>
			<trkpt lat="39.690153" lon="-79.928943"></trkpt>
			<trkpt lat="39.690135" lon="-79.929009"></trkpt>
			<trkpt lat="39.690117" lon="-79.929059"></trkpt>
			<trkpt lat="39.690106" lon="-79.92913"></trkpt>
			<trkpt lat="39.690092" lon="-79.929186"></trkpt>
			<trkpt lat="39.690078" lon="-79.929251"></trkpt>
			<trkpt lat="39.690054" lon="-79.929308"></trkpt>
			<trkpt lat="39.690031" lon="-79.929353"></trkpt>
			<trkpt lat="39.69" lon="-79.92941"></trkpt>
			<trkpt lat="39.689976" lon="-79.929452"></trkpt>
			<trkpt lat="39.68995" lon="-79.92951"></trkpt>
			<trkpt lat="39.689922" lon="-79.929552"></trkpt>
			<trkpt lat="39.689914" lon="-79.929603"></trkpt>
			<trkpt lat="39.689906" lon="-79.929665"></trkpt>
			<trkpt lat="39.689893" lon="-79.929715"></trkpt>
			<trkpt lat="39.689891" lon="-79.929782"></trkpt>
			<trkpt lat="39.68988" lon="-79.929837"></trkpt>
			<trkpt lat="39.689873" lon="-79.929902"></trkpt>
			<trkpt lat="39.689855" lon="-79.92996"></trkpt>
			<trkpt lat="39.689835" lon="-79.930008"></trkpt>
			<trkpt lat="39.68981" lon="-79.93007"></trkpt>
			<trkpt lat="39.689786" lon="-79.930115"></trkpt>
			<trkpt lat="39.689765" lon="-79.930175"></trkpt>
			<trkpt lat="39.689739" lon="-79.93022"></trkpt>
			<trkpt lat="39.689721" lon="-79.930268"></trkpt>
			<trkpt lat="39.689698" lon="-79.930324"></trkpt>
			<trkpt lat="39.689689" lon="-79.930374"></trkpt>
			<trkpt lat="39.689681" lon="-79.930427"></trkpt>
			<trkpt lat="39.6897" lon="-79.930482"></trkpt>
			<trkpt lat="39.68973" lon="-79.930538"></trkpt>
			<trkpt lat="39.689763" lon="-79.930588"></trkpt>
			<trkpt lat="39.689808" lon="-79.930627"></trkpt>
			<trkpt lat="39.689855" lon="-79.930657"></trkpt>
			<trkpt lat="39.689902" lon="-79.930676"></trkpt>
			<trkpt lat="39.689954" lon="-79.930697"></trkpt>
			<trkpt lat="39.689995" lon="-79.930714"></trkpt>
			<trkpt lat="39.69004" lon="-79.930734"></trkpt>
			<trkpt lat="39.69008" lon="-79.930751"></trkpt>
			<trkpt lat="39.690135" lon="-79.930753"></trkpt>
			<trkpt lat="39.69018" lon="-79.930752"></trkpt>
			<trkpt lat="39.690236" lon="-79.930738"></trkpt>
			<trkpt lat="39.690287" lon="-79.930727"></trkpt>
			<trkpt lat="39.690334" lon="-79.930722"></trkpt>
			<trkpt lat="39.690383" lon="-79.930725"></trkpt>
			<trkpt lat="39.690427" lon="-79.9306902"></trkpt>
			<trkpt lat="39.690476" lon="-79.9306899"></trkpt>
			<trkpt lat="39.6905293" lon="-79.9306909"></trkpt>
			<trkpt lat="39.6905895" lon="-79.9306842"></trkpt>
			<trkpt lat="39.6906314" lon="-79.9307045"></trkpt>
			<trkpt lat="39.6906679" lon="-79.9307102"></trkpt>
			<trkpt lat="39.6907053" lon="-79.9307163"></trkpt>
			<trkpt lat="39.6907366" lon="-79.9307318"></trkpt>
			<trkpt lat="39.6907658" lon="-79.9307403"></trkpt>
			<trkpt lat="39.690795" lon="-79.9307823"></trkpt>
			<trkpt lat="39.690787" lon="-79.930825"></trkpt>
			<trkpt lat="39.690776" lon="-79.930849"></trkpt>
			<trkpt lat="39.690742" lon="-79.930873"></trkpt>
			<trkpt lat="39.6907" lon="-79.930882"></trkpt>
			<trkpt lat="39.69065" lon="-79.930895"></trkpt>
			<trkpt lat="39.690607" lon="-79.930899"></trkpt>
			<trkpt lat="39.690564" lon="-79.93091"></trkpt>
			<trkpt lat="39.690515" lon="-79.93092"></trkpt>
			<trkpt lat="39.690482" lon="-79.930915"></trkpt>
			<trkpt lat="39.690431" lon="-79.930908"></trkpt>
			<trkpt lat="39.690391" lon="-79.930902"></trkpt>
			<trkpt lat="39.690344" lon="-79.930903"></trkpt>
			<trkpt lat="39.690295" lon="-79.930911"></trkpt>
			<trkpt lat="39.690255" lon="-79.930908"></trkpt>
			<trkpt lat="39.690202" lon="-79.930923"></trkpt>
			<trkpt lat="39.690162" lon="-79.930936"></trkpt>
			<trkpt lat="39.690117" lon="-79.930953"></trkpt>
			<trkpt lat="39.69007" lon="-79.930964"></trkpt>
			<trkpt lat="39.690034" lon="-79.930967"></trkpt>
			<trkpt lat="39.689987" lon="-79.930983"></trkpt>
			<trkpt lat="39.68995" lon="-79.930991"></trkpt>
			<trkpt lat="39.689908" lon="-79.931002"></trkpt>
			<trkpt lat="39.689868" lon="-79.931011"></trkpt>
			<trkpt lat="39.68983" lon="-79.93101"></trkpt>
			<trkpt lat="39.689791" lon="-79.931008"></trkpt>
			<trkpt lat="39.689752" lon="-79.931004"></trkpt>
			<trkpt lat="39.689707" lon="-79.931"></trkpt>
			<trkpt lat="39.689665" lon="-79.930998"></trkpt>
			<trkpt lat="39.689625" lon="-79.931006"></trkpt>
			<trkpt lat="39.689583" lon="-79.931028"></trkpt>
			<trkpt lat="39.689549" lon="-79.93105"></trkpt>
			<trkpt lat="39.689517" lon="-79.931087"></trkpt>
			<trkpt lat="39.689483" lon="-79.931122"></trkpt>
			<trkpt lat="39.68945" lon="-79.931158"></trkpt>
			<trkpt lat="39.689411" lon="-79.931192"></trkpt>
			<trkpt lat="39.689373" lon="-79.931217"></trkpt>
			<trkpt lat="39.68933" lon="-79.931236"></trkpt>
			<trkpt lat="39.689293" lon="-79.931248"></trkpt>
			<trkpt lat="39.689246" lon="-79.931258"></trkpt>
			<trkpt lat="39.689203" lon="-79.931261"></trkpt>
			<trkpt lat="39.689152" lon="-79.931268"></trkpt>
			<trkpt lat="39.689099" lon="-79.931268"></trkpt>
			<trkpt lat="39.689053" lon="-79.931263"></trkpt>
			<trkpt lat="39.689001" lon="-79.931267"></trkpt>
			<trkpt lat="39.688958" lon="-79.931264"></trkpt>
			<trkpt lat="39.688911" lon="-79.93127"></trkpt>
			<trkpt lat="39.688866" lon="-79.931272"></trkpt>
			<trkpt lat="39.688822" lon="-79.931283"></trkpt>
			<trkpt lat="39.688773" lon="-79.93129"></trkpt>
			<trkpt lat="39.688735" lon="-79.931288"></trkpt>
			<trkpt lat="39.688684" lon="-79.9313"></trkpt>
			<trkpt lat="39.68864" lon="-79.931297"></trkpt>
			<trkpt lat="39.688586" lon="-79.931311"></trkpt>
			<trkpt lat="39.68854" lon="-79.931308"></trkpt>
			<trkpt lat="39.688488" lon="-79.931312"></trkpt>
			<trkpt lat="39.688439" lon="-79.931313"></trkpt>
			<trkpt lat="39.688393" lon="-79.93132"></trkpt>
			<trkpt lat="39.688339" lon="-79.931329"></trkpt>
			<trkpt lat="39.688295" lon="-79.931342"></trkpt>
			<trkpt lat="39.688249" lon="-79.93137"></trkpt>
			<trkpt lat="39.688215" lon="-79.931405"></trkpt>
			<trkpt lat="39.688178" lon="-79.931465"></trkpt>
			<trkpt lat="39.688149" lon="-79.931512"></trkpt>
			<trkpt lat="39.688119" lon="-79.93156"></trkpt>
			<trkpt lat="39.688091" lon="-79.93161"></trkpt>
			<trkpt lat="39.688067" lon="-79.931662"></trkpt>
			<trkpt lat="39.688055" lon="-79.931731"></trkpt>
			<trkpt lat="39.688047" lon="-79.93179"></trkpt>
			<trkpt lat="39.688047" lon="-79.931855"></trkpt>
			<trkpt lat="39.688039" lon="-79.931914"></trkpt>
			<trkpt lat="39.688029" lon="-79.93198"></trkpt>
			<trkpt lat="39.688009" lon="-79.932033"></trkpt>
			<trkpt lat="39.687986" lon="-79.93209"></trkpt>
			<trkpt lat="39.687959" lon="-79.932139"></trkpt>
			<trkpt lat="39.68792" lon="-79.932183"></trkpt>
			<trkpt lat="39.687882" lon="-79.932212"></trkpt>
			<trkpt lat="39.687838" lon="-79.932227"></trkpt>
			<trkpt lat="39.687789" lon="-79.93224"></trkpt>
			<trkpt lat="39.687745" lon="-79.932248"></trkpt>
			<trkpt lat="39.6877" lon="-79.932267"></trkpt>
			<trkpt lat="39.687656" lon="-79.932288"></trkpt>
			<trkpt lat="39.687616" lon="-79.932324"></trkpt>
			<trkpt lat="39.68758" lon="-79.932356"></trkpt>
			<trkpt lat="39.687538" lon="-79.932403"></trkpt>
			<trkpt lat="39.6875" lon="-79.932424"></trkpt>
			<trkpt lat="39.687448" lon="-79.932445"></trkpt>
			<trkpt lat="39.68739" lon="-79.932461"></trkpt>
			<trkpt lat="39.687327" lon="-79.932484"></trkpt>
			<trkpt lat="39.687257" lon="-79.932494"></trkpt>
			<trkpt lat="39.687182" lon="-79.932511"></trkpt>
			<trkpt lat="39.687127" lon="-79.932514"></trkpt>
			<trkpt lat="39.687076" lon="-79.932527"></trkpt>
			<trkpt lat="39.687018" lon="-79.932533"></trkpt>
			<trkpt lat="39.686975" lon="-79.932538"></trkpt>
			<trkpt lat="39.686924" lon="-79.932529"></trkpt>
			<trkpt lat="39.686878" lon="-79.932521"></trkpt>
			<trkpt lat="39.686842" lon="-79.932512"></trkpt>
			<trkpt lat="39.686793" lon="-79.93251"></trkpt>
			<trkpt lat="39.686753" lon="-79.932511"></trkpt>
			<trkpt lat="39.686708" lon="-79.932518"></trkpt>
			<trkpt lat="39.686658" lon="-79.932517"></trkpt>
			<trkpt lat="39.686616" lon="-79.932513"></trkpt>
			<trkpt lat="39.686558" lon="-79.932522"></trkpt>
			<trkpt lat="39.686519" lon="-79.93253"></trkpt>
			<trkpt lat="39.686473" lon="-79.932567"></trkpt>
			<trkpt lat="39.68643" lon="-79.932599"></trkpt>
			<trkpt lat="39.686391" lon="-79.93263"></trkpt>
			<trkpt lat="39.686347" lon="-79.932664"></trkpt>
			<trkpt lat="39.686313" lon="-79.932685"></trkpt>
			<trkpt lat="39.686266" lon="-79.932717"></trkpt>
			<trkpt lat="39.68622" lon="-79.932733"></trkpt>
			<trkpt lat="39.686183" lon="-79.932754"></trkpt>
			<trkpt lat="39.686133" lon="-79.932779"></trkpt>
			<trkpt lat="39.686094" lon="-79.932799"></trkpt>
			<trkpt lat="39.686048" lon="-79.93283"></trkpt>
			<trkpt lat="39.686006" lon="-79.932854"></trkpt>
			<trkpt lat="39.685965" lon="-79.932893"></trkpt>
			<trkpt lat="39.6859276" lon="-79.9329388"></trkpt>
			<trkpt lat="39.6858891" lon="-79.9329654"></trkpt>
			<trkpt lat="39.6858431" lon="-79.9329961"></trkpt>
			<trkpt lat="39.6857981" lon="-79.933005"></trkpt>
			<trkpt lat="39.6857679" lon="-79.9330147"></trkpt>
			<trkpt lat="39.685744" lon="-79.933009"></trkpt>
			<trkpt lat="39.685698" lon="-79.933017"></trkpt>
			<trkpt lat="39.685649" lon="-79.933024"></trkpt>
			<trkpt lat="39.685607" lon="-79.933023"></trkpt>
			<trkpt lat="39.685556" lon="-79.933028"></trkpt>
			<trkpt lat="39.685511" lon="-79.933027"></trkpt>
			<trkpt lat="39.685467" lon="-79.933032"></trkpt>
			<trkpt lat="39.685423" lon="-79.933035"></trkpt>
			<trkpt lat="39.685378" lon="-79.933024"></trkpt>
			<trkpt lat="39.685354" lon="-79.933006"></trkpt>
			<trkpt lat="39.6853366" lon="-79.9330011"></trkpt>
			<trkpt lat="39.6853306" lon="-79.9329706"></trkpt>
			<trkpt lat="39.6853391" lon="-79.9329504"></trkpt>
			<trkpt lat="39.6853528" lon="-79.9329435"></trkpt>
			<trkpt lat="39.6853975" lon="-79.9329365"></trkpt>
			<trkpt lat="39.6854515" lon="-79.9329288"></trkpt>
			<trkpt lat="39.6854868" lon="-79.9329271"></trkpt>
			<trkpt lat="39.6855395" lon="-79.9329051"></trkpt>
			<trkpt lat="39.6855892" lon="-79.9329091"></trkpt>
			<trkpt lat="39.6856255" lon="-79.9329022"></trkpt>
			<trkpt lat="39.6856694" lon="-79.9328875"></trkpt>
			<trkpt lat="39.6857106" lon="-79.9328878"></trkpt>
			<trkpt lat="39.6857521" lon="-79.9328699"></trkpt>
			<trkpt lat="39.685794" lon="-79.932876"></trkpt>
			<trkpt lat="39.685834" lon="-79.932844"></trkpt>
			<trkpt lat="39.685875" lon="-79.932813"></trkpt>
			<trkpt lat="39.685912" lon="-79.932782"></trkpt>
			<trkpt lat="39.685946" lon="-79.932738"></trkpt>
			<trkpt lat="39.685975" lon="-79.932704"></trkpt>
			<trkpt lat="39.686012" lon="-79.932666"></trkpt>
			<trkpt lat="39.68605" lon="-79.932637"></trkpt>
			<trkpt lat="39.686083" lon="-79.932609"></trkpt>
			<trkpt lat="39.686119" lon="-79.932574"></trkpt>
			<trkpt lat="39.686151" lon="-79.93255"></trkpt>
			<trkpt lat="39.686193" lon="-79.932524"></trkpt>
			<trkpt lat="39.68623" lon="-79.932493"></trkpt>
			<trkpt lat="39.686272" lon="-79.932464"></trkpt>
			<trkpt lat="39.686311" lon="-79.932445"></trkpt>
			<trkpt lat="39.686351" lon="-79.932419"></trkpt>
			<trkpt lat="39.686397" lon="-79.932389"></trkpt>
			<trkpt lat="39.686437" lon="-79.932355"></trkpt>
			<trkpt lat="39.686472" lon="-79.932308"></trkpt>
			<trkpt lat="39.686502" lon="-79.932273"></trkpt>
			<trkpt lat="39.686523" lon="-79.932226"></trkpt>
			<trkpt lat="39.686543" lon="-79.932177"></trkpt>
			<trkpt lat="39.686558" lon="-79.932143"></trkpt>
			<trkpt lat="39.686576" lon="-79.932087"></trkpt>
			<trkpt lat="39.68659" lon="-79.932054"></trkpt>
			<trkpt lat="39.686596" lon="-79.932"></trkpt>
			<trkpt lat="39.686606" lon="-79.931954"></trkpt>
			<trkpt lat="39.686607" lon="-79.931894"></trkpt>
			<trkpt lat="39.686609" lon="-79.931836"></trkpt>
			<trkpt lat="39.686601" lon="-79.93178"></trkpt>
			<trkpt lat="39.6866" lon="-79.931724"></trkpt>
			<trkpt lat="39.686594" lon="-79.93167"></trkpt>
			<trkpt lat="39.686588" lon="-79.931611"></trkpt>
			<trkpt lat="39.686585" lon="-79.93156"></trkpt>
			<trkpt lat="39.686577" lon="-79.931495"></trkpt>
			<trkpt lat="39.68657" lon="-79.931449"></trkpt>
			<trkpt lat="39.686562" lon="-79.931383"></trkpt>
			<trkpt lat="39.686563" lon="-79.931326"></trkpt>
			<trkpt lat="39.686552" lon="-79.931266"></trkpt>
			<trkpt lat="39.686548" lon="-79.931208"></trkpt>
			<trkpt lat="39.686541" lon="-79.931151"></trkpt>
			<trkpt lat="39.686532" lon="-79.931089"></trkpt>
			<trkpt lat="39.686523" lon="-79.931034"></trkpt>
			<trkpt lat="39.686513" lon="-79.930972"></trkpt>
			<trkpt lat="39.686506" lon="-79.930926"></trkpt>
			<trkpt lat="39.686483" lon="-79.930874"></trkpt>
			<trkpt lat="39.686459" lon="-79.930832"></trkpt>
			<trkpt lat="39.686415" lon="-79.930808"></trkpt>
			<trkpt lat="39.686376" lon="-79.930797"></trkpt>
			<trkpt lat="39.686335" lon="-79.930785"></trkpt>
			<trkpt lat="39.6863" lon="-79.930771"></trkpt>
			<trkpt lat="39.686267" lon="-79.930744"></trkpt>
			<trkpt lat="39.686243" lon="-79.930712"></trkpt>
			<trkpt lat="39.686228" lon="-79.930678"></trkpt>
			<trkpt lat="39.686216" lon="-79.930647"></trkpt>
			<trkpt lat="39.686187" lon="-79.930609"></trkpt>
			<trkpt lat="39.686161" lon="-79.930588"></trkpt>
			<trkpt lat="39.686128" lon="-79.930565"></trkpt>
			<trkpt lat="39.686098" lon="-79.930557"></trkpt>
			<trkpt lat="39.686058" lon="-79.930545"></trkpt>
			<trkpt lat="39.68602" lon="-79.930536"></trkpt>
			<trkpt lat="39.685979" lon="-79.930514"></trkpt>
			<trkpt lat="39.685936" lon="-79.930493"></trkpt>
			<trkpt lat="39.685892" lon="-79.930477"></trkpt>
			<trkpt lat="39.685853" lon="-79.930458"></trkpt>
			<trkpt lat="39.685813" lon="-79.930435"></trkpt>
			<trkpt lat="39.685772" lon="-79.930408"></trkpt>
			<trkpt lat="39.685724" lon="-79.930384"></trkpt>
			<trkpt lat="39.685683" lon="-79.930358"></trkpt>
			<trkpt lat="39.685643" lon="-79.930332"></trkpt>
			<trkpt lat="39.685611" lon="-79.930301"></trkpt>
			<trkpt lat="39.685591" lon="-79.930252"></trkpt>
			<trkpt lat="39.685572" lon="-79.930199"></trkpt>
			<trkpt lat="39.685564" lon="-79.930147"></trkpt>
			<trkpt lat="39.685553" lon="-79.930082"></trkpt>
			<trkpt lat="39.685533" lon="-79.930035"></trkpt>
			<trkpt lat="39.685491" lon="-79.930004"></trkpt>
			<trkpt lat="39.685448" lon="-79.929987"></trkpt>
			<trkpt lat="39.6853897" lon="-79.9299888"></trkpt>
			<trkpt lat="39.6853476" lon="-79.9299735"></trkpt>
			<trkpt lat="39.6853238" lon="-79.9299421"></trkpt>
			<trkpt lat="39.6853005" lon="-79.9298947"></trkpt>
			<trkpt lat="39.6852975" lon="-79.9298309"></trkpt>
			<trkpt lat="39.685305" lon="-79.929792"></trkpt>
			<trkpt lat="39.685307" lon="-79.929727"></trkpt>
			<trkpt lat="39.685308" lon="-79.929675"></trkpt>
			<trkpt lat="39.685314" lon="-79.929613"></trkpt>
			<trkpt lat="39.685323" lon="-79.929556"></trkpt>
			<trkpt lat="39.685341" lon="-79.929502"></trkpt>
			<trkpt lat="39.685374" lon="-79.929459"></trkpt>
			<trkpt lat="39.685398" lon="-79.929421"></trkpt>
			<trkpt lat="39.685434" lon="-79.929374"></trkpt>
			<trkpt lat="39.685462" lon="-79.929338"></trkpt>
			<trkpt lat="39.685496" lon="-79.929293"></trkpt>
			<trkpt lat="39.685529" lon="-79.929256"></trkpt>
			<trkpt lat="39.685574" lon="-79.929217"></trkpt>
			<trkpt lat="39.685619" lon="-79.929194"></trkpt>
			<trkpt lat="39.685663" lon="-79.929171"></trkpt>
			<trkpt lat="39.685707" lon="-79.929157"></trkpt>
			<trkpt lat="39.685748" lon="-79.929143"></trkpt>
			<trkpt lat="39.685793" lon="-79.929134"></trkpt>
			<trkpt lat="39.685834" lon="-79.929141"></trkpt>
			<trkpt lat="39.685881" lon="-79.929165"></trkpt>
			<trkpt lat="39.6859" lon="-79.929205"></trkpt>
			<trkpt lat="39.685913" lon="-79.929267"></trkpt>
			<trkpt lat="39.685912" lon="-79.929337"></trkpt>
			<trkpt lat="39.685917" lon="-79.929392"></trkpt>
			<trkpt lat="39.685915" lon="-79.929459"></trkpt>
			<trkpt lat="39.685911" lon="-79.929512"></trkpt>
			<trkpt lat="39.68591" lon="-79.929577"></trkpt>
			<trkpt lat="39.685907" lon="-79.929629"></trkpt>
			<trkpt lat="39.68591" lon="-79.929703"></trkpt>
			<trkpt lat="39.685904" lon="-79.929761"></trkpt>
			<trkpt lat="39.685912" lon="-79.929824"></trkpt>
			<trkpt lat="39.685911" lon="-79.929882"></trkpt>
			<trkpt lat="39.685917" lon="-79.929933"></trkpt>
			<trkpt lat="39.685922" lon="-79.929988"></trkpt>
			<trkpt lat="39.685929" lon="-79.930035"></trkpt>
			<trkpt lat="39.685949" lon="-79.930088"></trkpt>
			<trkpt lat="39.685967" lon="-79.930127"></trkpt>
			<trkpt lat="39.685999" lon="-79.93018"></trkpt>
			<trkpt lat="39.686021" lon="-79.930224"></trkpt>
			<trkpt lat="39.686052" lon="-79.930267"></trkpt>
			<trkpt lat="39.686082" lon="-79.930298"></trkpt>
			<trkpt lat="39.686121" lon="-79.930333"></trkpt>
			<trkpt lat="39.686157" lon="-79.930364"></trkpt>
			<trkpt lat="39.686195" lon="-79.930392"></trkpt>
			<trkpt lat="39.686235" lon="-79.930422"></trkpt>
			<trkpt lat="39.686274" lon="-79.930441"></trkpt>
			<trkpt lat="39.686319" lon="-79.930458"></trkpt>
			<trkpt lat="39.686359" lon="-79.930472"></trkpt>
			<trkpt lat="39.686409" lon="-79.930486"></trkpt>
			<trkpt lat="39.686448" lon="-79.930503"></trkpt>
			<trkpt lat="39.6865" lon="-79.930504"></trkpt>
			<trkpt lat="39.686545" lon="-79.930497"></trkpt>
			<trkpt lat="39.686586" lon="-79.930464"></trkpt>
			<trkpt lat="39.686617" lon="-79.930422"></trkpt>
			<trkpt lat="39.686634" lon="-79.930371"></trkpt>
			<trkpt lat="39.686638" lon="-79.930305"></trkpt>
			<trkpt lat="39.686642" lon="-79.93025"></trkpt>
			<trkpt lat="39.686642" lon="-79.93018"></trkpt>
			<trkpt lat="39.686645" lon="-79.930121"></trkpt>
			<trkpt lat="39.686646" lon="-79.930055"></trkpt>
			<trkpt lat="39.686653" lon="-79.930001"></trkpt>
			<trkpt lat="39.686655" lon="-79.929944"></trkpt>
			<trkpt lat="39.686659" lon="-79.929889"></trkpt>
			<trkpt lat="39.686659" lon="-79.929834"></trkpt>
			<trkpt lat="39.686656" lon="-79.929771"></trkpt>
			<trkpt lat="39.686659" lon="-79.929723"></trkpt>
			<trkpt lat="39.686656" lon="-79.929659"></trkpt>
			<trkpt lat="39.686656" lon="-79.929606"></trkpt>
			<trkpt lat="39.686655" lon="-79.929547"></trkpt>
			<trkpt lat="39.686659" lon="-79.9295"></trkpt>
			<trkpt lat="39.686661" lon="-79.929447"></trkpt>
			<trkpt lat="39.686664" lon="-79.929389"></trkpt>
			<trkpt lat="39.686667" lon="-79.929336"></trkpt>
			<trkpt lat="39.68667" lon="-79.929277"></trkpt>
			<trkpt lat="39.686668" lon="-79.929227"></trkpt>
			<trkpt lat="39.686667" lon="-79.929164"></trkpt>
			<trkpt lat="39.686669" lon="-79.92911"></trkpt>
			<trkpt lat="39.686668" lon="-79.929049"></trkpt>
			<trkpt lat="39.686672" lon="-79.928998"></trkpt>
			<trkpt lat="39.68667" lon="-79.928943"></trkpt>
			<trkpt lat="39.686672" lon="-79.928885"></trkpt>
			<trkpt lat="39.686677" lon="-79.928831"></trkpt>
			<trkpt lat="39.686676" lon="-79.928766"></trkpt>
			<trkpt lat="39.686681" lon="-79.928716"></trkpt>
			<trkpt lat="39.686683" lon="-79.928652"></trkpt>
			<trkpt lat="39.686688" lon="-79.9286"></trkpt>
			<trkpt lat="39.68669" lon="-79.928542"></trkpt>
			<trkpt lat="39.686692" lon="-79.928487"></trkpt>
			<trkpt lat="39.686687" lon="-79.928433"></trkpt>
			<trkpt lat="39.686688" lon="-79.928374"></trkpt>
			<trkpt lat="39.686691" lon="-79.928322"></trkpt>
			<trkpt lat="39.6866998" lon="-79.9282617"></trkpt>
			<trkpt lat="39.6867082" lon="-79.9281999"></trkpt>
			<trkpt lat="39.6867018" lon="-79.9281766"></trkpt>
			<trkpt lat="39.6866845" lon="-79.9281446"></trkpt>
			<trkpt lat="39.686642" lon="-79.928114"></trkpt>
			<trkpt lat="39.6866038" lon="-79.9280904"></trkpt>
			<trkpt lat="39.686563" lon="-79.928081"></trkpt>
			<trkpt lat="39.686518" lon="-79.928095"></trkpt>
			<trkpt lat="39.686469" lon="-79.928109"></trkpt>
			<trkpt lat="39.686429" lon="-79.928119"></trkpt>
			<trkpt lat="39.686381" lon="-79.928128"></trkpt>
			<trkpt lat="39.686342" lon="-79.928134"></trkpt>
			<trkpt lat="39.686291" lon="-79.928144"></trkpt>
			<trkpt lat="39.686253" lon="-79.928142"></trkpt>
			<trkpt lat="39.686205" lon="-79.928151"></trkpt>
			<trkpt lat="39.686164" lon="-79.928159"></trkpt>
			<trkpt lat="39.686122" lon="-79.928187"></trkpt>
			<trkpt lat="39.6860872" lon="-79.928212"></trkpt>
			<trkpt lat="39.686047" lon="-79.92825"></trkpt>
			<trkpt lat="39.686013" lon="-79.928288"></trkpt>
			<trkpt lat="39.685988" lon="-79.928328"></trkpt>
			<trkpt lat="39.68596" lon="-79.928381"></trkpt>
			<trkpt lat="39.685943" lon="-79.928429"></trkpt>
			<trkpt lat="39.685933" lon="-79.928485"></trkpt>
			<trkpt lat="39.685917" lon="-79.928541"></trkpt>
			<trkpt lat="39.685919" lon="-79.928602"></trkpt>
			<trkpt lat="39.685923" lon="-79.928664"></trkpt>
			<trkpt lat="39.685936" lon="-79.928718"></trkpt>
			<trkpt lat="39.685951" lon="-79.928777"></trkpt>
			<trkpt lat="39.685967" lon="-79.92883"></trkpt>
			<trkpt lat="39.685987" lon="-79.928892"></trkpt>
			<trkpt lat="39.686001" lon="-79.928942"></trkpt>
			<trkpt lat="39.686026" lon="-79.928997"></trkpt>
			<trkpt lat="39.68604" lon="-79.929051"></trkpt>
			<trkpt lat="39.686062" lon="-79.929101"></trkpt>
			<trkpt lat="39.686083" lon="-79.929156"></trkpt>
			<trkpt lat="39.686099" lon="-79.929201"></trkpt>
			<trkpt lat="39.686127" lon="-79.929259"></trkpt>
			<trkpt lat="39.686145" lon="-79.929313"></trkpt>
			<trkpt lat="39.686166" lon="-79.929365"></trkpt>
			<trkpt lat="39.686183" lon="-79.929418"></trkpt>
			<trkpt lat="39.686198" lon="-79.929472"></trkpt>
			<trkpt lat="39.686221" lon="-79.929532"></trkpt>
			<trkpt lat="39.686233" lon="-79.92958"></trkpt>
			<trkpt lat="39.686261" lon="-79.929637"></trkpt>
			<trkpt lat="39.686276" lon="-79.929685"></trkpt>
			<trkpt lat="39.686299" lon="-79.929739"></trkpt>
			<trkpt lat="39.686314" lon="-79.929791"></trkpt>
			<trkpt lat="39.686333" lon="-79.92984"></trkpt>
			<trkpt lat="39.686354" lon="-79.929897"></trkpt>
			<trkpt lat="39.68637" lon="-79.929944"></trkpt>
			<trkpt lat="39.686399" lon="-79.930005"></trkpt>
			<trkpt lat="39.6864088" lon="-79.9300589"></trkpt>
			<trkpt lat="39.6864115" lon="-79.9300755"></trkpt>
		</trkseg>
	</trk>
</gpx>
